EVENT_NAME: 201603240804
EVENT_ID: 6181
EVENT_DATE_YYYYMMDD: 2016/03/24
EVENT_TIME_HHMMSS: 08:04:58.00000
EVENT_LATITUDE_DEGREE: 40.8331
EVENT_LONGITUDE_DEGREE: 27.9678
EVENT_DEPTH_KM: 21.24
HYPOCENTER_REFERENCE: AFAD
MAGNITUDE_W: 
MAGNITUDE_W_REFERENCE: 
MAGNITUDE_L: 3.2
MAGNITUDE_L_REFERENCE: AFAD
FOCAL_MECHANISM: 
NETWORK: TK
STATION_CODE: 5906
STATION_NAME: 
STATION_LATITUDE_DEGREE: 40.97338
STATION_LONGITUDE_DEGREE: 27.93164
STATION_ELEVATION_M: 64.0
LOCATION: TEKIRDA_MARMARA_EREGLISI_DEVLET_HASTANESI
SENSOR_DEPTH_M: 
VS30_M/S: 224
SITE_CLASSIFICATION_EC8: C
MORPHOLOGIC_CLASSIFICATION: 
EPICENTRAL_DISTANCE_KM: 15.89
EARTHQUAKE_BACKAZIMUTH_DEGREE: 
DATE_TIME_FIRST_SAMPLE_YYYYMMDD_HHMMSS: 24/03/2016 08:04:49.0000000
DATE_TIME_FIRST_SAMPLE_PRECISION: millisecond
SAMPLING_INTERVAL_S: 0.01
NDATA: 5285
DURATION_S: 
STREAM: HNZ
UNITS: cm/sn2
INSTRUMENT: sensor = GeoSig gmsplus | digitizer = 
INSTRUMENT_ANALOG/DIGITAL: 
INSTRUMENTAL_FREQUENCY_HZ: 
INSTRUMENTAL_DAMPING: 
FULL_SCALE_G: 
N_BIT_DIGITAL_CONVERTER: 
PGA_CM/S^2: 0.646
TIME_PGA_S: 
BASELINE_CORRECTION: BASELINE REMOVED
FILTER_TYPE: BUTTERWORTH
FILTER_ORDER: 2
LOW_CUT_FREQUENCY_HZ: 0.025
HIGH_CUT_FREQUENCY_HZ: 40.0
LATE/NORMAL_TRIGGERED: NT
DATABASE_VERSION: 
HEADER_FORMAT: DYNA 1.2
DATA_TYPE: Acceleration
PROCESSING: Automatic Paolucci et al., 2011
DATA_TIMESTAMP_YYYYMMDD_HHMMSS: 
DATA_LICENSE: U (unknown license)
DATA_CITATION: Turkish Accelerometric Archive v 1.0 - Disaster And Emergency Management Presidency, Earthquake Department
DATA_CREATOR: AFAD
ORIGINAL_DATA_MEDIATOR_CITATION: : AFAD - Disaster And Emergency Management Presidency
ORIGINAL_DATA_MEDIATOR: AFAD PROCESS SERVICE
ORIGINAL_DATA_CREATOR_CITATION: AFAD PROCESS SERVICE
ORIGINAL_DATA_CREATOR: network: TK
USER1: GuestUser
USER2: 
USER3: 
USER4: 
USER5: 
[...]
-0.000260
-0.000290
-0.000268
-0.000274
-0.000337
-0.000253
-0.000262
-0.000293
-0.000320
-0.000565
-0.000480
-0.000340
-0.000663
-0.000545
-0.000198
-0.000256
-0.000238
-0.000316
-0.000318
-0.000215
-0.000612
-0.000585
-0.000239
-0.000353
0.000050
0.000338
-0.000077
-0.000219
-0.000727
-0.001104
-0.000502
-0.000496
-0.000678
0.000047
0.000624
0.000574
-0.000180
-0.000795
-0.000215
-0.000038
-0.000529
-0.000236
-0.000131
-0.000396
-0.000260
-0.000464
-0.000368
-0.000349
-0.001832
-0.001946
-0.000051
0.000730
0.001370
0.001684
0.000583
0.001017
0.001781
0.001288
0.001122
-0.000871
-0.002666
-0.001532
-0.001286
-0.000952
-0.000930
-0.003193
-0.001784
0.001558
0.001518
0.000560
-0.000714
0.000546
0.003360
0.001706
0.000501
-0.000187
-0.002377
0.000987
0.002892
0.000284
0.002470
0.001566
-0.003460
-0.002037
-0.000031
-0.000124
0.001465
0.002043
0.002132
0.001469
-0.000212
-0.000898
-0.003068
-0.004314
-0.001801
-0.000654
0.000034
0.001784
0.000244
0.000945
0.006918
0.007954
0.005757
0.005442
0.000734
-0.002635
-0.001087
-0.005338
-0.010880
-0.009943
-0.005044
0.001248
0.002471
0.002571
0.006874
0.005615
0.001195
0.000297
0.001571
0.005482
0.003002
-0.002177
0.002533
0.004233
-0.000782
-0.005053
-0.010537
-0.008618
-0.003554
-0.002715
0.005098
0.008467
0.001837
0.002156
0.004369
0.006748
0.009487
0.000077
-0.009908
-0.011420
-0.008425
0.003500
0.008850
0.000974
-0.002204
-0.005222
-0.008801
-0.001932
0.004556
0.006187
0.006680
0.002480
0.001308
0.006422
0.011234
0.013573
0.003689
-0.013002
-0.013413
-0.005551
-0.002848
0.002028
0.002362
-0.002153
-0.000095
0.000694
0.001259
0.007387
0.010628
0.011671
0.005315
-0.007176
-0.007756
-0.008605
-0.013927
-0.005030
0.003268
0.003168
0.003157
0.000926
0.006831
0.010804
0.000981
-0.000129
0.002892
-0.000286
0.000768
-0.002206
-0.006023
-0.005620
-0.011270
-0.011364
-0.003960
0.002388
0.011404
0.010736
0.004029
0.008670
0.012643
0.012805
0.011568
-0.000219
-0.010272
-0.011623
-0.013604
-0.013312
-0.010862
-0.007284
0.001309
0.008874
0.013925
0.016859
0.009748
0.001938
0.005124
0.005465
-0.001658
-0.005720
-0.007921
-0.007348
-0.004967
-0.007956
-0.011674
-0.014036
-0.010633
0.002705
0.009562
0.014031
0.025653
0.024070
0.016171
0.013612
-0.000286
-0.013623
-0.015269
-0.016268
-0.011589
-0.007357
-0.009593
-0.005769
0.001151
0.009209
0.016082
0.013373
0.011884
0.009901
0.001840
0.000608
-0.001534
-0.006465
-0.003245
-0.004425
-0.008911
-0.007346
-0.006569
-0.003502
-0.000422
-0.002574
0.000611
0.008288
0.011542
0.009688
0.004286
0.000123
-0.003229
-0.008134
-0.007538
-0.003561
-0.004616
-0.003069
0.002082
-0.000034
-0.000954
0.004072
0.003455
0.004090
0.011177
0.014220
0.011157
0.000773
-0.007776
-0.004702
-0.004604
-0.007872
-0.007021
-0.006351
0.000030
0.000986
-0.007522
-0.001795
0.006034
0.005075
0.009182
0.009096
0.008328
0.008638
-0.005192
-0.011889
-0.004691
-0.003223
-0.000584
0.000330
-0.004164
-0.002674
-0.003261
-0.004505
-0.001452
-0.004594
-0.004522
0.002544
0.006136
0.008278
0.005407
0.002905
0.008515
0.006115
-0.001640
-0.002092
-0.004670
-0.006223
-0.000917
0.001838
0.005822
0.010643
0.004684
-0.003941
-0.009324
-0.014445
-0.010242
-0.001649
0.001900
0.006055
0.005569
0.002315
0.003268
-0.001488
-0.002213
0.005884
0.005778
0.007559
0.009718
-0.001978
-0.008631
-0.010263
-0.014481
-0.008483
-0.001771
0.002752
0.007953
0.003045
0.000679
0.000684
-0.005541
-0.000482
0.006169
0.003939
0.006003
0.004752
0.002101
0.001921
-0.006994
-0.009498
-0.001695
-0.000325
-0.001481
-0.004294
-0.005255
0.001314
0.000742
-0.002735
0.002289
0.005534
0.007683
0.008417
0.002481
0.000742
0.001316
-0.002025
-0.001106
-0.000694
-0.004189
-0.003559
-0.002234
-0.001974
-0.003441
-0.010421
-0.010903
-0.005760
-0.007902
-0.002717
0.011281
0.015555
0.015486
0.011579
0.002729
-0.000632
-0.009400
-0.016078
-0.003863
0.001726
-0.001902
0.002050
0.001868
0.001116
0.000648
-0.007355
-0.007678
-0.004737
-0.004286
0.003339
0.004265
0.001000
0.005275
0.004277
0.002431
0.004015
0.002043
0.002000
-0.001616
-0.006288
-0.002116
-0.001968
-0.003600
-0.001745
-0.007855
-0.009908
-0.000987
0.003514
0.004363
0.004168
-0.000111
-0.003837
-0.007460
-0.007120
0.003253
0.009673
0.007237
0.007353
0.003114
-0.006976
-0.009246
-0.007126
-0.003990
0.001928
0.005969
0.009497
0.006377
-0.001466
0.000447
-0.003556
-0.014953
-0.009117
0.003890
0.013331
0.016489
0.004778
-0.001539
0.000352
-0.005066
-0.003973
-0.001106
-0.005249
-0.004671
-0.007082
-0.008767
-0.003173
-0.004698
-0.003832
0.003435
0.004009
0.002233
-0.002270
-0.004290
-0.000728
-0.003414
0.002355
0.014997
0.010891
0.007644
0.011188
0.004543
-0.003704
-0.011551
-0.017013
-0.009639
-0.004723
-0.007116
-0.001242
0.006328
0.008093
0.008007
0.003323
0.001465
0.005447
0.002204
0.000137
0.005976
0.005958
0.003079
-0.000682
-0.008336
-0.009318
-0.007479
-0.008289
-0.007187
-0.006151
0.000599
0.006638
0.001315
0.002359
0.006072
-0.001136
-0.005343
-0.009955
-0.012841
-0.000488
0.008604
0.011762
0.016622
0.010395
0.001695
-0.003251
-0.009898
-0.010118
-0.009158
-0.007590
0.001345
0.005379
0.005377
0.005486
-0.000517
-0.003430
-0.001834
0.000366
0.008462
0.009973
0.000168
-0.007626
-0.014914
-0.017354
-0.009391
-0.001210
0.010342
0.019717
0.011073
0.000397
-0.004042
-0.011470
-0.011414
-0.005766
-0.002754
0.005065
0.007254
0.001063
-0.001169
-0.008706
-0.014423
-0.005608
0.001350
0.007779
0.015309
0.013095
0.013712
0.011133
-0.003933
-0.011351
-0.014239
-0.015170
-0.007428
-0.007036
-0.007417
-0.002028
-0.002661
0.005724
0.019271
0.019791
0.016118
0.003963
-0.012230
-0.017439
-0.019928
-0.011400
0.005496
0.007853
0.006618
0.001988
-0.012180
-0.014801
-0.011216
-0.008797
0.004168
0.016205
0.021314
0.022647
0.011207
-0.006280
-0.018172
-0.021039
-0.010387
0.001316
0.004226
0.010305
0.014719
0.006928
-0.002545
-0.011947
-0.019053
-0.013443
-0.004210
0.006606
0.021025
0.022796
0.015579
0.006327
-0.008276
-0.013848
-0.013827
-0.012930
0.001667
0.009267
0.005328
0.009648
0.005647
-0.004848
-0.009015
-0.015190
-0.010118
-0.001896
-0.004451
0.004788
0.014716
0.012407
0.012402
0.005929
-0.002543
-0.006042
-0.012654
-0.006196
0.006713
0.006729
0.006651
0.004820
-0.000187
0.000528
-0.004191
-0.008476
-0.002303
0.000048
-0.002356
-0.002808
-0.002319
0.000133
0.001189
0.000748
0.001284
0.000116
0.002338
0.010771
0.016509
0.015457
0.007342
-0.004401
-0.009339
-0.009776
-0.013804
-0.015331
-0.013457
-0.012656
-0.007305
0.001244
0.008833
0.014442
0.009178
0.001273
0.004059
0.006299
0.005142
0.003865
0.001939
0.007249
0.007603
-0.000998
0.000958
0.002620
-0.005633
-0.015053
-0.024064
-0.018790
-0.005367
-0.001012
0.009157
0.019061
0.015918
0.014484
0.011793
0.005059
-0.001514
-0.014809
-0.023147
-0.019720
-0.012169
0.004007
0.019482
0.022204
0.016798
0.002514
-0.010431
-0.010490
-0.010893
-0.013378
-0.009050
-0.002098
0.007613
0.013874
0.010957
0.010911
0.007654
-0.003530
-0.007157
-0.008766
-0.009082
-0.003031
-0.004747
-0.002485
0.009515
0.009486
0.007319
0.005522
-0.006790
-0.009226
-0.005019
-0.005339
0.005079
0.009563
-0.001746
-0.005768
-0.006569
-0.003160
0.011185
0.015721
0.011333
0.003215
-0.012623
-0.016781
-0.012934
-0.010096
0.003317
0.006271
-0.004151
0.000894
0.012060
0.016852
0.014762
0.000761
-0.014506
-0.023594
-0.020035
-0.002763
0.008069
0.013344
0.017813
0.010721
0.004445
0.002354
-0.006180
-0.007846
-0.001645
0.000191
0.003402
0.006615
0.001901
-0.006496
-0.013959
-0.015638
-0.010434
-0.003876
0.006848
0.015617
0.011860
0.010080
0.010245
-0.000873
-0.006078
-0.004174
-0.007941
-0.003944
0.003176
0.002566
0.001469
-0.005159
-0.010505
-0.007692
-0.010437
-0.010212
-0.001121
0.009606
0.023820
0.022928
0.005974
-0.003662
-0.015293
-0.025260
-0.015666
-0.000715
0.009601
0.014134
0.015231
0.019053
0.012675
-0.002595
-0.011574
-0.015509
-0.011090
-0.003394
-0.001614
0.001805
0.000505
-0.007522
-0.008493
-0.006572
-0.001893
0.007493
0.009265
0.010212
0.016174
0.014353
0.010540
0.011001
0.004059
-0.007940
-0.015125
-0.016576
-0.009149
0.000152
-0.002004
-0.006166
-0.001268
0.007165
0.011180
0.004607
-0.001757
0.001168
0.003414
0.008572
0.013064
0.008584
0.009993
0.005173
-0.013718
-0.018705
-0.016677
-0.015990
-0.006550
-0.001923
0.003087
0.011027
0.004895
-0.000153
0.000704
0.000419
0.006243
0.007705
0.010901
0.021004
0.014661
0.000882
-0.010829
-0.023318
-0.020886
-0.017847
-0.018897
-0.004004
0.005361
0.006686
0.017926
0.020971
0.017005
0.012654
-0.000323
-0.005388
-0.001813
-0.002825
-0.002530
-0.004280
-0.007014
-0.003924
-0.004839
-0.008860
-0.009519
-0.012284
-0.012327
-0.003856
0.005256
0.014115
0.021743
0.019273
0.012703
0.005961
-0.004073
-0.005352
-0.002798
-0.006800
-0.003011
0.003375
0.001757
-0.001126
-0.007750
-0.009168
-0.002146
-0.000529
0.004039
0.010465
0.007049
-0.001309
-0.010631
-0.005637
0.007793
0.005172
0.005052
0.006395
-0.007635
-0.009665
-0.002526
-0.001204
0.006066
0.004009
-0.004231
-0.002136
-0.008676
-0.014770
-0.005100
0.001464
0.005788
0.012126
0.013534
0.015555
0.010811
-0.003979
-0.010290
-0.009346
-0.009194
-0.006722
-0.007303
-0.005026
0.004346
0.002684
-0.001414
0.005588
0.005148
0.002115
0.006883
0.006225
0.008366
0.014189
0.011170
0.010166
0.005206
-0.010894
-0.021591
-0.025997
-0.020920
-0.008458
-0.004622
0.000161
0.005131
0.005391
0.014792
0.017957
0.013034
0.012567
-0.000583
-0.009244
-0.003363
-0.010167
-0.011004
-0.000984
-0.003207
-0.003323
-0.001800
0.000240
0.012250
0.009577
-0.003073
-0.003662
-0.003801
-0.000821
0.006817
0.011125
0.014655
0.005917
-0.006336
-0.003543
-0.003797
-0.008187
-0.004648
-0.002680
0.002333
0.009994
0.006133
0.000342
-0.002078
-0.008607
-0.012162
-0.008961
-0.000606
0.009706
0.010575
0.009704
0.014312
0.007706
-0.002341
-0.003678
-0.007523
-0.006599
-0.002111
-0.004160
0.000004
0.000220
-0.007435
-0.004371
-0.004552
-0.005351
0.005256
0.009446
0.016458
0.023101
0.009545
-0.000264
-0.004071
-0.010753
-0.006142
-0.004267
-0.005204
0.000954
-0.000559
0.001737
0.009049
0.002615
-0.003930
-0.005211
-0.006816
-0.003794
-0.001916
-0.001967
-0.003149
-0.008601
-0.008736
-0.002864
0.003100
0.011072
0.016409
0.017793
0.015840
0.005314
-0.002426
0.000736
0.000626
-0.000602
0.002244
-0.005382
-0.012584
-0.004942
-0.000460
0.001037
0.005007
-0.000273
-0.003006
0.000644
-0.001149
-0.000578
-0.001587
-0.003896
0.003786
0.006614
0.005040
0.005719
-0.000895
0.000002
0.005704
0.002233
0.006699
0.010092
0.005338
0.007953
-0.001022
-0.019953
-0.022128
-0.014892
-0.005976
-0.002867
-0.008182
-0.004246
0.002013
0.005954
0.015829
0.017647
0.017618
0.021867
0.013298
0.005292
0.003700
-0.004878
-0.007983
-0.007659
-0.013848
-0.014602
-0.013117
-0.013269
-0.009766
-0.009535
-0.005491
0.008209
0.016643
0.021287
0.020995
0.003817
-0.011846
-0.011856
-0.005772
0.009014
0.024854
0.022464
0.006930
-0.007497
-0.014519
-0.020105
-0.027217
-0.023142
-0.016260
-0.008097
0.018823
0.034455
0.025140
0.016958
-0.004223
-0.026866
-0.020488
-0.009352
0.003637
0.021587
0.019038
0.006644
-0.007523
-0.022708
-0.015829
0.000290
0.009992
0.019671
0.018832
0.016757
0.015749
-0.005573
-0.024836
-0.025425
-0.025551
-0.021309
-0.008723
0.003961
0.012465
0.013739
0.015654
0.016471
0.008264
0.001356
-0.006783
-0.020267
-0.018220
-0.000295
0.016024
0.029748
0.030005
0.010261
-0.008884
-0.022355
-0.028812
-0.020037
-0.013127
-0.007645
0.004607
0.003497
0.001319
0.005194
-0.009654
-0.025403
-0.038905
-0.063161
-0.048995
0.030950
0.143108
0.230527
0.218445
0.058435
-0.208383
-0.338105
-0.116100
0.180276
0.189199
-0.011190
-0.246508
-0.292726
0.015299
0.250712
0.076912
-0.113102
-0.027205
0.186066
0.313620
0.194953
-0.070715
-0.222653
-0.234140
-0.210714
-0.121030
0.064778
0.178500
0.119870
0.033569
0.013139
0.026718
0.003502
-0.101628
-0.146213
-0.024379
0.118780
0.116200
-0.028640
-0.110158
-0.029405
0.043028
0.056849
0.029017
-0.092318
-0.127558
0.045955
0.183325
0.125943
0.020663
-0.030271
-0.102560
-0.108448
0.061563
0.108846
-0.019337
-0.003348
-0.047844
-0.224448
-0.091082
0.161498
0.165722
0.082365
-0.078256
-0.242134
-0.054639
0.318701
0.298089
-0.159431
-0.440875
-0.186784
0.244711
0.374633
0.124135
-0.213414
-0.316455
-0.162482
0.045327
0.128722
0.103007
0.080284
0.115736
0.159163
-0.003218
-0.261461
-0.182823
0.102799
0.232299
0.150573
-0.094144
-0.184944
-0.033561
-0.019163
-0.168675
-0.234675
-0.007772
0.434427
0.473956
-0.045631
-0.423849
-0.217305
0.160613
0.097746
-0.192865
-0.129580
0.132636
0.150528
-0.047214
-0.136843
-0.039656
0.008010
-0.021133
0.002234
0.066020
0.157162
0.178344
0.094245
0.018488
-0.117120
-0.174325
0.060114
0.160123
-0.068433
-0.207633
-0.170198
0.006378
0.233147
0.138126
-0.065336
0.003004
-0.040426
-0.273511
-0.195440
0.166915
0.403074
0.282038
-0.144878
-0.465639
-0.343524
0.017433
0.205473
0.233827
0.331514
0.214337
-0.284686
-0.452857
0.085172
0.596902
0.397694
-0.273942
-0.645982
-0.364972
0.090049
0.147627
-0.065525
-0.089251
0.064907
0.101039
0.099513
0.237623
0.271331
-0.033611
-0.360917
-0.258811
0.156462
0.351246
0.145551
-0.100721
-0.126591
-0.101172
-0.158379
-0.120447
0.056046
0.071249
-0.106447
-0.083664
0.131785
0.107285
-0.108033
-0.145258
-0.017856
0.164019
0.323761
0.189576
-0.111085
-0.136203
-0.006275
0.005189
-0.070872
-0.157449
-0.090693
0.064579
0.031634
-0.080020
-0.080372
-0.010505
0.077700
0.155788
0.241704
0.210784
-0.041690
-0.175460
-0.033093
0.044186
-0.067006
-0.190751
-0.154482
0.036464
0.131608
0.061651
-0.093395
-0.313399
-0.274359
0.147165
0.431168
0.299383
-0.041584
-0.283250
-0.126177
0.243352
0.255685
-0.111496
-0.241914
0.086429
0.232726
-0.030207
-0.069207
0.030691
-0.177205
-0.210814
0.019193
-0.001251
0.017373
0.253671
0.202197
-0.095592
-0.196627
-0.090413
-0.024332
-0.026539
0.054955
0.111422
0.000476
-0.061925
-0.004349
-0.060284
-0.159365
-0.016610
0.204832
0.158059
0.009833
0.080907
0.201095
0.042227
-0.225786
-0.229240
-0.110500
-0.085590
0.015046
0.111043
0.015021
-0.055202
-0.005377
0.043613
0.131557
0.162147
-0.061650
-0.311349
-0.203762
0.174426
0.368747
0.129183
-0.220019
-0.229510
-0.032937
0.059891
0.141048
0.241531
0.146691
-0.090607
-0.219243
-0.190732
-0.054997
0.071698
-0.038124
-0.302297
-0.341688
-0.064535
0.285527
0.442418
0.377517
0.327284
0.342274
0.241383
0.023343
-0.153723
-0.146952
-0.064197
-0.153666
-0.268956
-0.285050
-0.410232
-0.520646
-0.373639
-0.063730
0.195522
0.187458
0.070453
0.215003
0.396293
0.215242
-0.142474
-0.251524
-0.038790
0.194705
0.181963
-0.054362
-0.203243
0.001710
0.299274
0.295966
0.132440
0.120913
0.143278
-0.075276
-0.322957
-0.206991
0.070639
0.078249
-0.119142
-0.176596
0.031291
0.292702
0.258068
-0.135355
-0.417861
-0.180970
0.203469
0.203638
-0.051747
-0.244941
-0.331399
-0.308824
-0.165246
-0.022952
0.015123
0.119621
0.399116
0.572888
0.478139
0.248941
-0.061755
-0.344417
-0.386362
-0.206065
0.007327
0.097134
0.042333
0.001878
0.097217
0.283062
0.377756
0.186839
-0.136879
-0.315815
-0.453278
-0.617606
-0.637410
-0.507655
-0.228535
0.168470
0.434856
0.559746
0.611771
0.451611
0.278759
0.331713
0.294835
-0.044151
-0.383472
-0.440205
-0.348604
-0.379750
-0.395449
-0.145394
0.118064
0.071341
-0.113119
-0.111959
0.032816
0.060228
0.039984
0.250712
0.560293
0.625044
0.474765
0.354034
0.261840
0.013408
-0.344683
-0.532532
-0.424441
-0.214554
-0.190840
-0.292505
-0.234063
-0.066912
0.010915
-0.031773
-0.145025
-0.084730
0.244349
0.432754
0.253489
-0.015945
-0.159768
-0.141413
-0.001779
0.012372
-0.139785
-0.107151
0.064497
0.040104
-0.003372
0.078982
0.063588
0.057296
0.203773
0.242542
0.105416
-0.027360
-0.121689
-0.108016
0.064665
0.149933
-0.031681
-0.215457
-0.068490
0.216577
0.125571
-0.295709
-0.478537
-0.257120
0.070320
0.230352
0.145883
0.029962
0.038399
0.019349
-0.041037
-0.037562
-0.037539
-0.051037
-0.024527
0.004757
0.014220
-0.020318
-0.082128
-0.061144
-0.012406
-0.079449
-0.173365
-0.126671
0.127408
0.457515
0.529262
0.358289
0.302019
0.320075
0.223004
0.156882
0.118823
-0.128895
-0.469064
-0.542762
-0.370792
-0.266382
-0.283048
-0.262604
-0.185660
-0.147067
-0.216510
-0.315987
-0.245522
0.014739
0.237761
0.260191
0.206849
0.242567
0.257784
0.209724
0.287696
0.429671
0.445621
0.384331
0.241805
-0.005011
-0.177908
-0.266630
-0.394237
-0.465323
-0.434681
-0.387733
-0.296696
-0.179293
-0.104720
0.016323
0.235143
0.408573
0.423917
0.306371
0.129926
0.019649
0.065039
0.132081
0.028551
-0.175632
-0.250921
-0.129789
0.033084
0.033244
-0.161553
-0.298418
-0.176402
-0.033858
-0.090697
-0.090225
0.112983
0.214630
0.112861
0.086892
0.157336
0.096216
0.013244
0.100259
0.154858
-0.015052
-0.223880
-0.209775
-0.030223
0.008593
-0.097698
-0.008863
0.293270
0.443948
0.270899
-0.012716
-0.092006
0.012240
0.027971
-0.029529
-0.060566
-0.190137
-0.352535
-0.337802
-0.150976
0.088673
0.185539
0.031027
-0.145180
-0.118613
-0.022938
-0.050522
-0.110505
-0.069206
-0.031502
-0.107703
-0.170972
-0.017407
0.248353
0.261231
0.065270
0.048769
0.174373
0.176064
0.110002
0.148380
0.270526
0.265315
0.065170
-0.056769
0.023907
0.072157
-0.039532
-0.183914
-0.209156
-0.097905
0.016769
0.031275
-0.031883
-0.136860
-0.241947
-0.285937
-0.274961
-0.214998
-0.080303
0.057722
0.129561
0.154810
0.123538
0.049989
0.007144
0.039449
0.144382
0.237515
0.261233
0.254742
0.190250
0.037842
-0.113291
-0.169505
-0.129286
-0.115658
-0.184084
-0.215378
-0.212472
-0.221320
-0.163563
-0.118602
-0.117080
0.027832
0.217274
0.197973
0.030743
-0.059534
0.074042
0.283986
0.280889
0.170379
0.174812
0.175764
0.094609
0.009481
-0.087153
-0.151700
-0.142864
-0.145921
-0.143946
-0.088714
-0.033956
0.021571
0.040834
0.003403
0.062218
0.179182
0.144813
0.007545
-0.080833
-0.085704
-0.067794
-0.154533
-0.293197
-0.273617
-0.136531
-0.103904
-0.157655
-0.083670
0.113472
0.215028
0.199324
0.194878
0.197973
0.218789
0.286572
0.279891
0.183893
0.131511
0.067462
-0.088607
-0.219401
-0.272374
-0.292308
-0.256021
-0.175729
-0.109701
-0.054240
0.023836
0.112907
0.119650
0.018936
-0.024626
0.066228
0.130326
0.071384
-0.007171
-0.027547
-0.041968
-0.088902
-0.134733
-0.178546
-0.236255
-0.228898
-0.087075
0.072541
0.104485
0.079861
0.134881
0.239692
0.296365
0.281292
0.231906
0.185296
0.149139
0.135799
0.132116
0.089127
0.023185
-0.059362
-0.189054
-0.238844
-0.125145
-0.076091
-0.231595
-0.373859
-0.328414
-0.208913
-0.168998
-0.158653
-0.069772
0.013731
0.007645
0.025968
0.118108
0.173599
0.129697
