EVENT_NAME: 201603240804
EVENT_ID: 6181
EVENT_DATE_YYYYMMDD: 2016/03/24
EVENT_TIME_HHMMSS: 08:04:58.00000
EVENT_LATITUDE_DEGREE: 40.8331
EVENT_LONGITUDE_DEGREE: 27.9678
EVENT_DEPTH_KM: 21.24
HYPOCENTER_REFERENCE: AFAD
MAGNITUDE_W: 
MAGNITUDE_W_REFERENCE: 
MAGNITUDE_L: 3.2
MAGNITUDE_L_REFERENCE: AFAD
FOCAL_MECHANISM: 
NETWORK: TK
STATION_CODE: 5906
STATION_NAME: 
STATION_LATITUDE_DEGREE: 40.97338
STATION_LONGITUDE_DEGREE: 27.93164
STATION_ELEVATION_M: 64.0
LOCATION: TEKIRDA_MARMARA_EREGLISI_DEVLET_HASTANESI
SENSOR_DEPTH_M: 
VS30_M/S: 224
SITE_CLASSIFICATION_EC8: C
MORPHOLOGIC_CLASSIFICATION: 
EPICENTRAL_DISTANCE_KM: 15.89
EARTHQUAKE_BACKAZIMUTH_DEGREE: 
DATE_TIME_FIRST_SAMPLE_YYYYMMDD_HHMMSS: 24/03/2016 08:04:49.0000000
DATE_TIME_FIRST_SAMPLE_PRECISION: millisecond
SAMPLING_INTERVAL_S: 0.01
NDATA: 5285
DURATION_S: 
STREAM: HNE
UNITS: cm/sn2
INSTRUMENT: sensor = GeoSig gmsplus | digitizer = 
INSTRUMENT_ANALOG/DIGITAL: 
INSTRUMENTAL_FREQUENCY_HZ: 
INSTRUMENTAL_DAMPING: 
FULL_SCALE_G: 
N_BIT_DIGITAL_CONVERTER: 
PGA_CM/S^2: 3.058
TIME_PGA_S: 
BASELINE_CORRECTION: BASELINE REMOVED
FILTER_TYPE: BUTTERWORTH
FILTER_ORDER: 2
LOW_CUT_FREQUENCY_HZ: 0.025
HIGH_CUT_FREQUENCY_HZ: 40.0
LATE/NORMAL_TRIGGERED: NT
DATABASE_VERSION: 
HEADER_FORMAT: DYNA 1.2
DATA_TYPE: Acceleration
PROCESSING: Automatic Paolucci et al., 2011
DATA_TIMESTAMP_YYYYMMDD_HHMMSS: 
DATA_LICENSE: U (unknown license)
DATA_CITATION: Turkish Accelerometric Archive v 1.0 - Disaster And Emergency Management Presidency, Earthquake Department
DATA_CREATOR: AFAD
ORIGINAL_DATA_MEDIATOR_CITATION: : AFAD - Disaster And Emergency Management Presidency
ORIGINAL_DATA_MEDIATOR: AFAD PROCESS SERVICE
ORIGINAL_DATA_CREATOR_CITATION: AFAD PROCESS SERVICE
ORIGINAL_DATA_CREATOR: network: TK
USER1: GuestUser
USER2: 
USER3: 
USER4: 
USER5: 
[...]
0.004132
-0.000977
-0.000635
0.005183
0.015041
0.015122
0.002374
0.000129
0.005366
0.000277
-0.003405
0.000210
0.001555
0.003779
0.004726
-0.000579
-0.002048
-0.002292
-0.005298
0.001549
0.007460
0.001610
0.000560
0.004902
0.009329
0.012187
0.005784
0.002643
0.006715
0.003964
0.000549
-0.001604
-0.001425
0.002523
-0.004537
-0.009082
-0.001784
-0.000515
0.001246
0.001187
-0.006130
-0.003055
-0.000106
-0.002993
-0.000219
-0.002276
-0.002119
0.006276
0.007605
0.006540
0.002649
-0.004056
0.001487
0.006865
0.004702
0.006324
0.001034
-0.008705
-0.007915
-0.008339
-0.011537
-0.006187
-0.000532
0.002916
0.007599
0.005185
0.001644
0.005652
0.007306
0.004835
0.001086
-0.002978
-0.000745
0.000859
0.000455
0.006888
0.007105
-0.000883
-0.004810
-0.009669
-0.010524
-0.004680
-0.002020
0.003605
0.007895
0.005364
0.007642
0.006031
-0.002365
-0.004247
-0.003962
-0.001419
0.002692
0.001550
0.002787
0.003953
0.003148
0.006626
0.004061
-0.002186
-0.003962
-0.006099
-0.002948
0.001787
0.001170
0.000142
-0.003615
-0.002651
0.002756
-0.000549
-0.001612
0.000282
-0.004602
-0.004423
0.001668
0.004409
0.005034
0.005249
0.003515
-0.001006
-0.002824
0.000065
0.003522
0.005118
0.002014
0.000762
0.005031
0.004705
-0.000345
-0.003190
-0.000115
0.004177
0.001135
0.001108
0.005563
0.001440
-0.002513
-0.001313
0.001743
0.008207
0.006709
0.000504
0.000864
-0.001533
-0.005319
-0.006396
-0.004883
0.003893
0.004122
-0.003106
-0.000935
-0.004058
-0.009028
-0.004728
-0.004074
-0.001398
0.000456
-0.003093
0.005151
0.010970
0.003810
0.001984
0.003107
0.002147
-0.000502
-0.004607
0.000660
0.007098
0.003030
0.000154
0.001959
0.002190
-0.001185
-0.006225
-0.005050
0.001577
0.004312
0.004242
0.008760
0.012103
0.005043
-0.002363
-0.001055
0.000045
-0.004270
-0.006403
0.000716
0.008106
0.004375
-0.002989
-0.006022
-0.004579
-0.002536
-0.005303
-0.001840
0.006312
0.001635
-0.004354
-0.006833
-0.011724
-0.008643
-0.008450
-0.010671
-0.000985
0.001686
-0.000272
0.003972
0.001175
-0.000013
0.001047
-0.000517
0.008677
0.013465
0.006860
0.007812
0.010591
0.011359
0.012301
0.006808
0.004378
0.007131
0.006105
0.006073
0.006364
0.002031
-0.004186
-0.006618
-0.002262
-0.001963
-0.010166
-0.012389
-0.004490
0.000344
-0.007260
-0.016276
-0.012987
-0.006380
-0.006860
-0.008785
-0.005952
-0.003411
-0.007793
-0.009505
-0.002144
0.001871
-0.001774
-0.003195
0.005960
0.016636
0.012384
0.004093
0.004507
0.006014
0.005672
0.001606
0.003494
0.014841
0.012012
0.007355
0.016708
0.014369
0.005445
0.002493
-0.000440
0.005330
0.005221
-0.006015
-0.002987
0.000058
-0.009408
-0.011990
-0.010652
-0.013342
-0.016615
-0.016790
-0.008935
-0.001482
-0.001879
-0.006083
-0.009815
-0.007325
-0.006383
-0.009866
-0.000398
0.013430
0.010717
0.002859
0.005619
0.011811
0.010148
0.004351
0.005393
0.013261
0.014605
0.007802
0.010317
0.018556
0.012337
-0.002653
-0.007535
0.002719
0.009656
-0.000529
-0.006027
-0.002670
-0.007605
-0.010504
-0.010991
-0.012598
-0.007133
-0.009715
-0.012988
-0.002598
-0.002449
-0.008125
-0.006827
-0.008581
-0.005881
-0.004463
-0.006792
0.003563
0.010149
0.006579
0.006131
0.003522
0.004914
0.006073
-0.002297
0.000132
0.007440
0.005344
0.008031
0.013488
0.016223
0.014601
0.005256
0.003405
0.007024
0.001629
-0.004396
-0.005102
-0.002134
0.000015
-0.006279
-0.012088
-0.007577
-0.003848
-0.005989
-0.006606
-0.008209
-0.008409
-0.005503
-0.006946
-0.003198
0.000328
-0.009381
-0.010269
-0.004393
-0.009520
-0.006466
0.005271
0.008443
0.006846
-0.000648
-0.005646
0.004889
0.011982
0.009520
0.010470
0.009925
0.008021
0.004460
-0.001175
0.002092
0.004585
0.002542
0.007585
0.011322
0.010736
0.006401
-0.002539
-0.002586
-0.000004
-0.005340
-0.006577
-0.003057
-0.001654
-0.004276
-0.008932
-0.004859
-0.000745
-0.009494
-0.014190
-0.008931
-0.004888
-0.002979
-0.004079
-0.004340
-0.005052
-0.012582
-0.011202
0.001236
0.004674
0.002780
0.003146
0.002214
0.006033
0.009001
0.003237
0.005206
0.011814
0.006595
0.001842
0.002280
0.005472
0.012901
0.009159
0.003441
0.009239
0.007136
0.001328
0.001387
-0.000525
-0.000159
-0.003604
-0.009321
-0.006296
-0.006897
-0.008157
-0.003694
-0.002084
0.002279
-0.000920
-0.013096
-0.008344
-0.000129
-0.001203
0.002468
0.002696
-0.001038
-0.005467
-0.013268
-0.008886
-0.001630
-0.003993
0.001034
0.009217
0.011542
0.009090
-0.001683
-0.005215
0.002619
0.003041
0.002760
0.012135
0.017374
0.014832
0.010872
0.003453
-0.000687
-0.000572
-0.003948
-0.000514
0.003511
-0.001134
0.003533
0.005676
-0.004832
-0.008221
-0.012281
-0.015215
-0.007280
-0.005683
-0.004166
0.000173
-0.003767
-0.003523
-0.004099
-0.007757
-0.002322
-0.002026
-0.003427
0.002163
0.001921
0.002149
0.001193
-0.003125
0.001269
0.001697
0.000009
0.006046
0.007295
0.009926
0.011301
0.004151
0.004994
0.005568
0.001200
0.004622
0.003212
0.000167
0.007875
0.009611
0.001648
-0.003871
-0.005982
-0.004590
-0.002290
-0.006004
-0.009957
-0.005431
-0.001155
-0.005084
-0.009882
-0.009210
-0.005624
-0.005338
-0.006608
-0.001351
0.006050
0.004664
-0.003634
-0.006124
0.001781
0.007227
0.004778
0.005531
0.007359
0.005219
0.006164
0.004460
0.000195
0.001960
0.001055
0.001876
0.006931
0.004964
0.005927
0.005371
-0.003430
-0.005041
-0.007151
-0.010486
-0.007167
-0.005886
0.001487
0.006533
-0.000684
0.001364
0.003488
0.000478
0.005192
-0.002723
-0.014008
-0.006104
-0.000825
-0.001738
0.000176
-0.002223
-0.002631
-0.001818
-0.005845
-0.003246
0.003855
0.003798
0.002261
0.003890
0.004692
0.001575
-0.003623
-0.001182
0.005280
0.002763
-0.000871
0.001819
0.006677
0.010641
0.004407
-0.004129
0.001109
0.004836
-0.001916
-0.006528
-0.005965
-0.000129
0.002357
-0.005300
-0.007029
-0.004115
-0.009040
-0.011498
-0.008790
-0.001906
0.008364
0.004692
-0.002538
0.002016
-0.001241
-0.008039
-0.005572
-0.000325
0.010966
0.012138
0.001140
0.006597
0.010382
-0.000227
-0.002541
-0.002216
-0.000764
0.002254
-0.002436
0.002014
0.009609
0.002293
-0.004686
-0.008376
-0.008806
-0.003248
-0.004915
-0.005131
0.001368
0.000429
-0.000571
0.002507
0.002542
0.000107
-0.007603
-0.011997
-0.002698
0.005397
0.003090
-0.000939
-0.003414
-0.001821
0.000415
-0.005315
-0.005792
0.003269
0.004452
0.005075
0.009184
0.006476
0.005069
-0.000241
-0.007795
-0.002059
-0.002161
-0.006393
0.003987
0.012145
0.015026
0.012011
0.000508
-0.000203
-0.000352
-0.007127
-0.005810
-0.007024
-0.006547
0.001228
0.000978
0.001668
0.000916
-0.010018
-0.012400
-0.011094
-0.013981
-0.006691
0.003635
0.005265
0.001999
0.000425
0.003450
0.001735
-0.005325
-0.005001
0.001339
0.006292
0.009067
0.011064
0.013773
0.011488
0.001273
-0.003754
0.001183
0.001161
-0.005463
-0.005953
-0.002883
-0.001790
-0.000696
-0.001999
-0.003484
-0.004646
-0.009229
-0.009658
-0.003762
0.001903
0.003475
0.000719
0.002465
0.003430
-0.004956
-0.006776
-0.003255
-0.001964
0.003909
0.000228
-0.005742
0.004077
0.006326
0.003071
0.007550
0.004144
0.000502
0.000120
-0.002529
0.003254
0.006132
0.002002
0.003704
0.005362
0.005627
0.000984
-0.010257
-0.012089
-0.009082
-0.007558
-0.002255
-0.000654
0.002296
0.002629
-0.009692
-0.009650
-0.000008
-0.001991
-0.000941
0.002198
0.001842
0.006802
0.006901
0.003058
0.005433
0.005008
0.000242
-0.001266
-0.002269
-0.003596
0.000252
0.004289
0.005706
0.008626
0.004278
-0.003745
-0.003273
-0.000492
0.005483
0.008315
-0.000445
-0.001678
0.001666
-0.001519
0.000719
0.002461
0.000799
-0.001259
-0.008059
-0.004508
0.004704
0.003459
0.002033
-0.002718
-0.008806
-0.004220
-0.003785
-0.009302
-0.009801
-0.007683
-0.001037
0.004349
0.003803
0.003856
0.000493
-0.004016
-0.003079
0.000486
0.006564
0.007537
0.003483
0.007556
0.011749
0.008726
0.007351
0.007384
0.007123
0.006308
0.001075
-0.004213
-0.004708
-0.004649
-0.005136
-0.003128
-0.002071
-0.002408
-0.001981
-0.004862
-0.004425
0.000563
-0.001707
-0.002406
0.000188
-0.002619
0.000361
0.001219
-0.006421
-0.006197
-0.009522
-0.016253
-0.009654
-0.004877
-0.001325
0.007084
0.008583
0.011683
0.015069
0.013973
0.015349
0.007891
-0.000544
0.002971
0.005367
0.006466
0.006773
0.004462
0.002204
-0.006126
-0.007961
0.000023
-0.001844
-0.002435
0.003216
0.000124
-0.000458
0.001037
-0.003805
-0.001296
0.002214
-0.001352
-0.000820
-0.000342
-0.003753
-0.005719
-0.006056
-0.003460
-0.002821
-0.007573
-0.008019
-0.002508
0.001196
0.001399
-0.001154
-0.002284
0.002955
0.009750
0.013892
0.012563
0.004375
0.003918
0.011510
0.008934
0.002084
-0.001804
-0.001302
0.011397
0.014280
0.000081
-0.001283
0.003971
0.001858
-0.001551
-0.009870
-0.011199
-0.002087
0.000157
-0.000703
-0.002719
-0.007460
-0.007743
-0.004209
0.002521
0.003393
-0.004226
-0.000895
0.010091
0.007920
-0.003983
-0.009316
-0.003870
0.003378
0.003658
-0.001889
-0.005607
-0.005114
-0.003355
0.000086
0.000655
-0.006864
-0.012948
-0.010220
0.000178
0.014396
0.017628
0.008661
0.004840
0.008029
0.009558
0.002022
-0.008900
-0.005710
0.005186
0.010824
0.010758
0.003272
0.000028
0.003394
0.000029
-0.005696
-0.013912
-0.021410
-0.014838
-0.007402
-0.005176
-0.001413
-0.002629
-0.000415
0.004900
0.001141
0.001568
0.005265
0.001145
-0.000974
-0.002002
-0.004222
-0.005556
-0.010224
-0.006080
0.004797
0.002614
-0.004432
-0.003845
0.004932
0.014325
0.009445
-0.001902
-0.004266
0.000556
0.004818
0.002926
0.003653
0.012088
0.016647
0.015924
0.013899
0.008019
-0.000632
-0.005798
-0.004152
-0.002117
-0.006486
-0.015489
-0.020529
-0.016137
-0.008214
-0.001172
-0.000692
-0.007817
-0.004470
0.004628
0.000160
-0.007777
-0.012832
-0.011670
0.003087
0.014968
0.019567
0.021438
0.013391
0.007742
0.004428
-0.006726
-0.012979
-0.015568
-0.011149
0.007035
0.017551
0.018285
0.012060
-0.002389
-0.003575
-0.004268
-0.017955
-0.017022
-0.004824
0.005740
0.013767
0.006860
0.000459
0.005123
0.004371
0.005346
0.009528
0.005882
0.001240
-0.003710
-0.008148
-0.006066
-0.003583
-0.005427
-0.011759
-0.016461
-0.009334
0.004348
0.010813
0.008083
0.006338
0.006891
0.004105
0.000278
-0.006425
-0.011306
-0.008143
-0.002784
0.009460
0.019582
0.015290
0.009558
-0.001946
-0.012638
-0.006761
-0.006437
-0.009258
-0.002727
-0.000569
0.006329
0.016018
0.015041
0.008310
-0.011418
-0.027423
-0.017629
0.000451
0.019042
0.016560
-0.020693
-0.035427
-0.010556
0.005361
0.000547
-0.011742
-0.017081
-0.005445
0.012123
0.024523
0.024691
0.014561
0.002294
-0.012797
-0.018871
-0.006538
0.012850
0.028236
0.029841
0.018426
0.004912
-0.001923
0.006294
0.022137
0.027973
0.017223
-0.001970
-0.012890
-0.010222
-0.001115
0.000762
-0.013882
-0.031027
-0.033694
-0.013515
0.014326
0.009250
-0.019634
-0.039608
-0.055298
-0.049805
-0.019649
-0.009350
-0.014476
0.007954
0.047257
0.047629
0.008414
-0.019438
-0.036997
-0.030418
0.029250
0.056011
0.011589
-0.010063
0.013427
0.042082
0.055447
0.038665
0.015145
0.005734
0.012992
0.032118
0.018788
-0.013354
-0.016923
-0.026646
-0.036653
-0.009203
0.012303
0.014104
0.010763
-0.020032
-0.052382
-0.040012
0.002540
0.029332
0.014770
-0.017162
-0.034173
-0.034986
-0.020956
-0.013350
-0.042640
-0.069041
-0.049734
-0.018461
0.013461
0.046877
0.041947
0.023385
0.016511
-0.016925
-0.031045
0.021521
0.076138
0.084686
0.045996
-0.006655
-0.024943
-0.018590
-0.001572
0.023431
0.040104
0.051958
0.034271
-0.020894
-0.051163
-0.047075
-0.035563
-0.001615
0.041240
0.050992
0.035453
0.032671
0.022810
-0.025391
-0.057862
-0.054867
-0.069931
-0.081871
-0.056403
-0.024741
0.004117
0.027350
0.021818
-0.000428
-0.001906
0.025333
0.045594
0.045555
0.035620
-0.018189
-0.092688
-0.091223
-0.029768
0.016792
0.041142
0.032917
0.009183
0.038152
0.093336
0.083702
0.014642
-0.039981
-0.042168
-0.015093
0.004485
0.023893
0.043774
0.030472
-0.009625
-0.045787
-0.053735
-0.016543
0.018023
0.008871
-0.008943
-0.033684
-0.069358
-0.063928
-0.012225
0.055113
0.102054
0.065242
-0.034466
-0.100435
-0.100505
-0.062164
-0.007636
0.067577
0.134863
0.124611
0.051471
-0.024829
-0.086293
-0.093291
-0.039504
0.004679
0.015918
0.029891
0.054305
0.054145
0.016763
-0.011447
-0.019923
-0.037895
-0.032704
0.000776
0.002066
-0.012150
-0.004631
-0.002325
0.004491
0.030376
0.037332
0.031107
0.038886
0.029126
-0.035187
-0.120815
-0.139674
-0.077227
-0.000637
0.066199
0.089163
0.041254
0.009660
0.013365
-0.014497
-0.021428
0.023153
0.032258
-0.009642
-0.037308
-0.028060
-0.011615
0.010875
0.044305
0.013434
-0.066978
-0.059701
0.003156
0.024290
0.044924
0.045578
-0.022096
-0.060160
-0.008480
0.040891
0.030793
0.037819
0.090604
0.086322
0.020203
-0.008787
-0.022053
-0.057680
-0.058144
-0.033581
-0.044254
-0.061195
-0.040790
-0.000771
0.028635
0.039580
0.038437
0.009084
-0.041943
-0.042023
0.000928
0.008460
0.013095
0.054741
0.086492
0.090643
0.068900
0.017207
-0.045849
-0.093899
-0.083888
-0.025210
0.002336
-0.018353
-0.046151
-0.047573
0.000486
0.081019
0.161362
0.225454
0.293350
0.429908
0.644280
0.886829
1.128097
1.303398
1.329147
1.183444
0.867586
0.392912
-0.185577
-0.793582
-1.382753
-1.912236
-2.313629
-2.589222
-2.843084
-3.058429
-2.998738
-2.406564
-1.231176
0.259820
1.582362
2.313145
2.266942
1.534494
0.477216
-0.409361
-0.727537
-0.354003
0.476032
1.293906
1.735289
1.747890
1.501104
1.191500
0.932824
0.747540
0.563172
0.288444
-0.034067
-0.317045
-0.561634
-0.698641
-0.566663
-0.134262
0.456757
0.978395
1.205970
1.061505
0.672032
0.212461
-0.283704
-0.838248
-1.347721
-1.660805
-1.709174
-1.517675
-1.188054
-0.826761
-0.490842
-0.192711
0.072817
0.263884
0.343286
0.315444
0.125944
-0.190634
-0.386572
-0.334589
-0.179282
-0.067320
-0.028418
-0.032398
-0.011591
0.084799
0.234825
0.379033
0.501860
0.616100
0.681298
0.658476
0.589913
0.506243
0.365362
0.128308
-0.200325
-0.520967
-0.621488
-0.395892
0.014695
0.407679
0.664313
0.747196
0.714233
0.655362
0.577776
0.444644
0.294416
0.161572
-0.027638
-0.256311
-0.355785
-0.300010
-0.234132
-0.246077
-0.348898
-0.537065
-0.749386
-0.867556
-0.819842
-0.678167
-0.586442
-0.615560
-0.704394
-0.706890
-0.551105
-0.322043
-0.150095
-0.091104
-0.081157
0.000772
0.206523
0.494309
0.758418
0.908012
0.959940
0.965913
0.941586
0.896529
0.822543
0.697744
0.501334
0.231089
-0.039716
-0.203053
-0.223537
-0.151297
-0.069443
-0.077433
-0.246858
-0.498864
-0.660371
-0.676576
-0.610807
-0.524681
-0.445546
-0.358604
-0.228571
-0.059906
0.073231
0.112712
0.101082
0.085910
0.066288
0.063119
0.086983
0.098503
0.069260
0.020758
-0.018287
-0.048947
-0.052547
-0.018400
-0.006251
-0.036746
-0.067863
-0.075687
-0.018935
0.101643
0.194601
0.212276
0.171934
0.097871
0.030004
0.026283
0.143694
0.338661
0.470504
0.474633
0.371038
0.207772
0.067813
-0.005772
0.010365
0.144298
0.292771
0.308859
0.221420
0.128145
0.032403
-0.065674
-0.120029
-0.143241
-0.203886
-0.331370
-0.504686
-0.684961
-0.828442
-0.893452
-0.853738
-0.699579
-0.430535
-0.114923
0.102516
0.152553
0.094903
0.021457
0.007792
0.068285
0.122326
0.080185
-0.041364
-0.145238
-0.179289
-0.128063
0.032163
0.256947
0.468666
0.648168
0.788871
0.873707
0.880626
0.786813
0.613056
0.409400
0.237102
0.143479
0.111266
0.123279
0.186430
0.264933
0.295687
0.215884
0.026374
-0.182508
-0.365954
-0.545966
-0.733967
-0.929589
-1.073312
-1.066091
-0.891287
-0.630871
-0.403780
-0.288555
-0.284109
-0.344274
-0.400952
-0.399339
-0.321331
-0.156433
0.063877
0.237986
0.300732
0.315810
0.397118
0.565712
0.734012
0.807406
0.761979
0.640433
0.519023
0.469998
0.500264
0.553660
0.565334
0.476190
0.295354
0.110183
-0.036388
-0.144822
-0.219971
-0.308915
-0.433074
-0.577267
-0.734775
-0.834021
-0.795114
-0.644707
-0.463756
-0.319331
-0.221051
-0.147049
-0.112417
-0.117240
-0.118853
-0.071805
0.057089
0.231624
0.361128
0.392056
0.320759
0.210394
0.169746
0.245742
0.404838
0.573429
0.661756
0.614353
0.451227
0.244496
0.036586
-0.157770
-0.274865
-0.266338
-0.184798
-0.120343
-0.130145
-0.210871
-0.296815
-0.324396
-0.289323
-0.241163
-0.247066
-0.328791
-0.429288
-0.471444
-0.421275
-0.290329
-0.126410
0.016413
0.111462
0.148020
0.140250
0.123441
0.102008
0.079871
0.094438
0.170989
0.305972
0.443366
0.504542
0.482317
0.411728
0.327338
0.252498
0.167204
0.077583
0.025929
0.007763
0.000611
-0.012945
-0.053127
-0.116381
-0.174455
-0.177581
-0.119385
-0.075434
-0.091327
-0.148300
-0.213652
-0.231010
-0.174893
-0.104486
-0.082027
-0.103069
-0.117276
-0.086417
-0.036989
-0.028659
-0.076652
-0.144576
-0.177817
-0.155510
-0.129852
-0.136733
-0.133256
-0.103461
-0.068866
0.000851
0.122817
0.238601
0.299358
0.312000
0.294883
0.257227
0.222418
0.200392
0.153099
0.081679
0.037258
0.013354
0.002252
0.042358
0.107968
0.115468
0.034282
-0.077597
-0.151325
-0.181327
-0.180965
-0.174157
-0.184284
-0.165437
-0.098747
-0.046958
-0.032641
-0.037378
-0.056605
-0.094308
-0.146589
-0.163906
-0.109686
-0.023793
0.048854
0.092087
0.112661
0.141080
0.183947
0.225080
0.245333
0.213391
0.124597
0.012102
-0.083431
-0.123907
-0.108258
-0.085657
-0.087327
-0.078512
-0.019949
0.076088
0.185495
0.290977
0.361271
0.367644
0.307888
0.196556
0.043410
-0.119927
-0.234519
-0.274270
-0.251750
-0.216672
-0.236246
-0.291106
-0.302269
-0.245022
-0.160913
-0.127814
-0.157303
-0.165657
-0.114496
-0.028300
0.055171
0.081141
0.046984
0.009584
0.012032
0.059545
0.125016
0.192517
0.244499
0.233490
0.173453
0.133756
0.122002
0.097479
0.042043
-0.028584
-0.088429
-0.119205
-0.112318
-0.086153
-0.068551
-0.055851
-0.039092
-0.027597
-0.014054
0.033132
0.113965
0.168576
0.143471
0.048914
-0.062700
-0.129055
-0.108664
-0.012205
0.105222
0.190501
0.226707
0.210200
0.140978
0.048048
-0.033998
-0.089749
-0.124405
-0.160329
-0.195915
-0.212423
-0.205808
-0.163377
-0.079088
0.023264
0.101448
0.112118
0.059835
-0.012578
-0.060864
-0.050363
-0.013779
0.007767
0.039763
0.064167
0.039136
-0.014228
-0.089395
-0.166228
-0.167990
-0.088646
-0.017704
-0.018198
-0.067608
-0.117364
-0.139383
-0.100331
0.001757
0.103471
0.152985
0.158687
0.154383
0.158085
0.184696
0.243884
0.285374
0.265097
0.229840
0.217611
0.185017
0.091554
-0.032385
-0.135265
-0.197450
-0.218030
-0.228207
-0.256526
-0.255636
-0.177607
-0.058146
0.025074
0.030997
-0.005876
-0.048248
-0.091383
-0.111490
-0.109359
-0.108040
-0.091401
-0.053381
-0.000365
0.070780
0.140250
0.185615
0.180669
0.121308
0.068095
0.048417
0.030307
-0.000392
-0.051478
-0.106896
-0.115240
-0.067923
0.003360
0.084536
0.169417
0.226565
0.214291
0.135883
0.041630
-0.025159
-0.055472
-0.062074
-0.060772
-0.068876
-0.086511
-0.091024
-0.080056
-0.064295
-0.043823
-0.032623
-0.044154
-0.061546
-0.059388
-0.043352
-0.041560
-0.057498
-0.080127
-0.101714
-0.108082
