EVENT_NAME: 201603240804
EVENT_ID: 6181
EVENT_DATE_YYYYMMDD: 2016/03/24
EVENT_TIME_HHMMSS: 08:04:58.00000
EVENT_LATITUDE_DEGREE: 40.8331
EVENT_LONGITUDE_DEGREE: 27.9678
EVENT_DEPTH_KM: 21.24
HYPOCENTER_REFERENCE: AFAD
MAGNITUDE_W: 
MAGNITUDE_W_REFERENCE: 
MAGNITUDE_L: 3.2
MAGNITUDE_L_REFERENCE: AFAD
FOCAL_MECHANISM: 
NETWORK: TK
STATION_CODE: 5906
STATION_NAME: 
STATION_LATITUDE_DEGREE: 40.97338
STATION_LONGITUDE_DEGREE: 27.93164
STATION_ELEVATION_M: 64.0
LOCATION: TEKIRDA_MARMARA_EREGLISI_DEVLET_HASTANESI
SENSOR_DEPTH_M: 
VS30_M/S: 224
SITE_CLASSIFICATION_EC8: C
MORPHOLOGIC_CLASSIFICATION: 
EPICENTRAL_DISTANCE_KM: 15.89
EARTHQUAKE_BACKAZIMUTH_DEGREE: 
DATE_TIME_FIRST_SAMPLE_YYYYMMDD_HHMMSS: 24/03/2016 08:04:49.0000000
DATE_TIME_FIRST_SAMPLE_PRECISION: millisecond
SAMPLING_INTERVAL_S: 0.01
NDATA: 5285
DURATION_S: 
STREAM: HNN
UNITS: cm/sn2
INSTRUMENT: sensor = GeoSig gmsplus | digitizer = 
INSTRUMENT_ANALOG/DIGITAL: 
INSTRUMENTAL_FREQUENCY_HZ: 
INSTRUMENTAL_DAMPING: 
FULL_SCALE_G: 
N_BIT_DIGITAL_CONVERTER: 
PGA_CM/S^2: 2.205
TIME_PGA_S: 
BASELINE_CORRECTION: BASELINE REMOVED
FILTER_TYPE: BUTTERWORTH
FILTER_ORDER: 2
LOW_CUT_FREQUENCY_HZ: 0.025
HIGH_CUT_FREQUENCY_HZ: 40.0
LATE/NORMAL_TRIGGERED: NT
DATABASE_VERSION: 
HEADER_FORMAT: DYNA 1.2
DATA_TYPE: Acceleration
PROCESSING: Automatic Paolucci et al., 2011
DATA_TIMESTAMP_YYYYMMDD_HHMMSS: 
DATA_LICENSE: U (unknown license)
DATA_CITATION: Turkish Accelerometric Archive v 1.0 - Disaster And Emergency Management Presidency, Earthquake Department
DATA_CREATOR: AFAD
ORIGINAL_DATA_MEDIATOR_CITATION: : AFAD - Disaster And Emergency Management Presidency
ORIGINAL_DATA_MEDIATOR: AFAD PROCESS SERVICE
ORIGINAL_DATA_CREATOR_CITATION: AFAD PROCESS SERVICE
ORIGINAL_DATA_CREATOR: network: TK
USER1: GuestUser
USER2: 
USER3: 
USER4: 
USER5: 
[...]
-0.007368
-0.009481
-0.013609
-0.004957
-0.007306
-0.004351
0.006047
-0.001717
0.000078
0.003279
-0.006865
0.003306
0.008185
-0.002856
0.003690
0.004781
-0.002888
-0.002808
-0.003918
0.005533
0.010853
0.000944
0.005867
0.009920
0.002330
0.006003
0.007664
0.006478
0.009143
0.000920
-0.001912
0.002106
-0.006316
-0.008039
-0.000958
-0.002829
-0.004898
-0.004773
-0.004950
-0.003887
-0.006348
-0.001961
0.004267
-0.008336
-0.015445
-0.005384
-0.003411
-0.000158
0.003322
-0.004726
-0.001274
0.001748
-0.004903
0.003180
0.005181
-0.000237
0.006786
0.002778
-0.000143
0.006061
-0.003509
-0.004588
0.002293
0.000646
0.010927
0.010674
0.001891
0.013747
0.011225
-0.000424
0.005051
0.003317
0.002119
0.003043
-0.005381
-0.004159
-0.006515
-0.012834
-0.006952
-0.011750
-0.013764
-0.002185
-0.004141
-0.003933
0.001366
-0.004155
-0.000442
0.005633
-0.001425
-0.003974
-0.000520
-0.000278
-0.002589
-0.005176
-0.000098
0.007237
0.003482
0.001675
0.007401
0.004230
0.001138
0.004019
0.001758
0.005172
0.007975
0.001179
0.005009
0.007989
0.001952
0.001893
-0.002804
-0.000924
0.009964
0.002894
-0.002651
0.000425
-0.000888
0.002522
-0.005011
-0.011121
-0.001712
-0.011795
-0.015756
0.001162
-0.003644
-0.007429
-0.000376
-0.003583
0.002054
0.004295
0.000664
0.010612
0.007465
-0.004829
-0.005934
-0.007820
-0.002717
0.003236
-0.001073
0.004490
0.010186
0.003003
-0.000839
-0.000236
0.004457
0.008090
0.001722
0.003274
0.008533
-0.000487
-0.002348
0.004711
0.000795
-0.001475
-0.000976
-0.003837
0.001763
0.000206
-0.007649
0.001654
0.003377
-0.005696
-0.002172
-0.002765
-0.003252
-0.001244
-0.011442
-0.005335
0.005358
-0.004183
0.000640
0.004759
-0.005446
0.002504
0.005727
0.001587
0.008109
0.001131
-0.002580
0.003564
-0.001985
-0.000139
0.000840
-0.005931
-0.000380
0.000868
0.000670
0.006005
-0.000109
0.000663
0.004934
-0.003840
-0.000639
0.006174
0.000893
0.002257
0.003279
-0.002063
-0.004631
-0.008198
-0.005162
0.000553
-0.004013
-0.002069
0.003676
-0.003637
-0.005907
-0.000842
-0.003679
-0.005795
-0.007208
-0.007775
-0.000501
-0.001498
-0.005518
-0.000030
-0.002835
-0.003352
0.004658
0.002129
0.005993
0.013042
0.008037
0.009620
0.004120
-0.004354
0.004574
-0.001953
-0.005919
0.012409
0.008156
0.000161
0.003434
-0.004202
-0.001770
-0.003659
-0.011956
0.002173
0.004508
-0.002132
0.004838
0.000221
-0.001470
0.000045
-0.010626
-0.006218
0.000345
-0.001966
0.002106
-0.006071
-0.012799
-0.007321
-0.012619
-0.007715
0.001262
-0.008556
-0.003742
0.007072
-0.000620
0.000866
0.007870
0.004288
0.004365
0.006223
0.009054
0.017218
0.016270
0.010826
0.011608
0.007118
0.000349
-0.005086
-0.010727
-0.002317
0.005038
-0.000532
0.003506
0.003220
-0.006084
-0.002779
-0.004151
-0.005259
0.002651
-0.002058
-0.002127
-0.000048
-0.010149
-0.007424
-0.007721
-0.013193
-0.001643
-0.001357
-0.004201
0.002766
-0.005728
-0.007779
-0.002125
-0.006057
0.003401
0.010835
0.009163
0.015810
0.010676
0.006794
0.011501
0.002405
0.004565
0.009901
-0.002222
-0.000062
0.003443
-0.005037
-0.002086
-0.002163
-0.004990
0.002351
-0.001352
-0.007551
-0.000155
-0.000083
-0.003826
-0.000915
-0.004321
-0.002637
0.002197
-0.005521
-0.005402
-0.004050
-0.011163
-0.005144
-0.002102
-0.007037
-0.002877
-0.001179
0.000599
0.000586
-0.004885
0.002581
0.004342
-0.002503
0.007799
0.008441
0.001495
0.010726
0.007824
0.005776
0.012495
-0.000584
0.000358
0.011338
0.001401
0.003201
0.004362
-0.005406
-0.000437
-0.003908
-0.007911
0.000046
-0.006563
-0.006085
0.002390
-0.004800
-0.003930
-0.001348
-0.006478
-0.000185
-0.001197
-0.007126
-0.002181
-0.006591
-0.006774
0.002648
-0.000356
0.002394
0.006727
-0.001899
-0.000812
-0.001880
-0.012457
-0.007901
-0.002337
0.000098
0.011636
0.010768
0.005218
0.009207
0.004381
0.004027
0.008509
0.001574
0.004223
0.004368
-0.003383
0.006501
0.004353
-0.007594
-0.001428
-0.005649
-0.009018
0.001476
0.000798
0.002283
0.001341
-0.005221
0.001069
-0.005032
-0.011945
-0.002805
-0.010971
-0.014342
-0.005382
-0.009211
0.000342
0.006660
-0.001469
0.010096
0.008974
-0.006449
-0.000288
0.002272
0.004009
0.012582
0.007632
0.007852
0.009242
-0.002424
-0.003418
-0.001917
-0.006291
0.001126
0.006180
0.004792
0.009071
0.004653
-0.000864
0.000539
-0.008907
-0.009233
0.001468
-0.004435
-0.003511
0.004553
-0.000366
-0.000406
-0.008525
-0.017945
-0.004168
-0.004760
-0.010282
0.002491
-0.001961
-0.004951
0.001640
-0.006200
0.001323
0.007435
-0.003261
0.006784
0.007984
-0.001452
0.012723
0.013765
0.005272
0.008860
0.003513
0.001959
-0.000052
-0.008545
0.001955
0.006706
-0.001565
0.004726
0.005392
-0.003170
-0.002617
-0.000702
0.002628
0.002853
-0.004367
-0.002304
0.003284
-0.000568
-0.001652
0.001097
-0.002302
-0.008814
-0.010498
-0.001543
0.005881
-0.001438
-0.007817
-0.009495
-0.014056
-0.010441
-0.002843
0.004192
0.012447
0.006012
-0.000719
0.005802
0.002070
0.000569
0.008000
0.001843
0.002343
0.009377
0.005075
0.007685
0.001850
-0.009792
0.001455
0.003577
-0.003255
0.002756
0.001943
0.004642
0.007095
-0.001761
0.001198
0.001239
-0.003822
-0.000333
-0.008191
-0.010131
-0.000874
-0.005734
-0.006270
-0.001885
-0.004797
-0.003826
-0.005499
-0.004306
0.001988
-0.000388
0.003461
0.006625
-0.005637
-0.006760
-0.001234
-0.006337
-0.001335
0.007387
0.006010
0.010730
0.011100
0.002873
0.003276
-0.002844
-0.007363
0.004247
0.001497
-0.004409
0.003280
0.001072
0.001570
0.005107
0.000123
0.007206
0.003418
-0.014300
-0.003709
0.005276
-0.003340
0.003181
0.003182
-0.003816
0.002295
-0.004750
-0.011045
-0.004109
-0.011544
-0.012388
-0.002836
-0.003073
0.003959
0.005992
-0.000402
0.002278
-0.004492
-0.009120
0.000454
0.004132
0.006740
0.006644
0.005749
0.007693
-0.004009
-0.009350
-0.002526
-0.003198
0.004470
0.010774
0.005625
0.007261
0.000639
-0.007941
-0.002892
-0.005131
-0.002587
0.009526
0.006713
0.002913
0.002981
-0.004484
-0.005133
-0.003283
-0.007644
-0.003892
-0.001300
-0.005475
0.002401
0.008000
0.002909
0.003499
-0.004479
-0.012397
-0.005230
-0.010097
-0.009743
0.006540
0.004717
0.003143
0.007869
0.001130
-0.001139
-0.007866
-0.009787
0.006607
0.004041
-0.000280
0.013178
0.009014
0.000201
0.000651
-0.002423
-0.002648
-0.004656
-0.000651
0.010324
0.004865
0.000921
0.006542
0.002675
-0.000558
-0.004097
-0.007227
-0.000756
-0.006022
-0.012534
0.001314
0.008493
0.004632
0.000818
-0.009515
-0.009722
-0.002966
-0.007314
0.000129
0.013598
0.007741
0.005973
0.009838
0.000562
-0.002759
-0.000653
-0.004840
-0.003816
-0.004653
-0.004527
0.004890
0.001562
-0.007858
-0.007485
-0.005525
0.000496
-0.001344
-0.008269
0.002052
0.006666
0.003560
0.009827
0.005063
-0.000160
0.000829
-0.006723
-0.001759
0.005150
0.003756
0.011729
0.004985
-0.004653
0.000272
-0.009888
-0.009843
0.003982
-0.000980
-0.001046
-0.001878
-0.008454
0.001992
0.000881
-0.003417
0.007544
0.000641
-0.002131
0.005967
-0.007371
-0.012107
-0.004968
-0.005210
0.003758
0.006116
0.001313
0.008261
0.004290
-0.006398
-0.003872
-0.001680
0.001014
0.003694
-0.005678
-0.004084
0.011864
0.009366
0.002305
0.003616
-0.004495
-0.003178
0.004563
-0.001245
0.003092
0.006840
-0.001202
0.003776
0.006522
0.002434
0.000048
-0.008877
-0.005469
0.000474
-0.005248
-0.001834
-0.002112
-0.005516
-0.005905
-0.014745
-0.004552
0.006620
-0.003616
0.006404
0.010209
-0.007859
-0.002433
-0.000018
-0.007550
0.001323
0.000946
0.003129
0.013609
0.000806
-0.006080
0.002053
-0.002130
0.001939
0.011497
0.005762
0.004427
0.004193
-0.003765
-0.000247
0.002393
-0.002046
0.006094
0.008947
0.002430
0.002557
-0.005561
-0.009967
-0.003801
-0.011329
-0.012000
-0.003797
-0.007115
0.000464
0.006103
-0.001256
0.005054
0.003445
-0.008266
-0.004066
0.000303
0.003339
0.005011
0.003790
0.010106
-0.000343
-0.011254
-0.000250
-0.007435
-0.012300
-0.000797
-0.007008
-0.000865
0.006586
-0.008153
0.000299
0.009357
0.003991
0.016112
0.012980
0.003146
0.013228
0.005452
-0.005779
-0.002615
-0.009645
-0.009854
-0.002547
-0.001967
0.005008
0.002939
-0.006890
-0.002238
-0.002449
-0.008143
-0.003908
0.000334
0.006116
0.007445
-0.000376
0.000158
-0.002098
-0.010485
-0.005885
-0.003659
-0.004397
0.003888
0.003043
0.002234
0.005775
-0.004747
-0.004174
0.004063
-0.006044
-0.002685
0.010134
0.009604
0.015075
0.011372
-0.000864
0.000170
-0.004431
-0.005243
-0.001211
-0.003926
0.012032
0.017236
-0.001707
-0.002122
-0.004008
-0.010691
-0.004539
-0.008441
-0.004331
0.008201
0.002119
0.003033
0.006061
-0.007161
-0.011784
-0.011053
-0.010755
-0.001957
-0.000083
0.000892
0.010061
0.006971
-0.002199
-0.002297
0.000843
0.006047
0.007901
0.008142
0.012608
0.003880
-0.006582
0.001228
-0.001772
-0.008657
0.002407
0.001681
0.000238
0.007795
-0.004713
-0.011667
-0.008586
-0.010576
0.007738
0.014797
-0.000722
0.003560
0.003321
-0.002978
0.005559
0.001697
0.001414
0.010172
0.003979
0.003032
-0.003920
-0.019952
-0.011870
-0.002770
-0.001804
0.000945
-0.006863
-0.002790
0.003477
-0.005630
0.004361
0.008478
-0.007189
-0.000721
0.005155
0.002793
0.008558
-0.000507
-0.002214
0.009333
0.004252
0.004249
0.003926
-0.006603
0.001642
0.004792
-0.006695
-0.003410
-0.002853
-0.003484
0.007988
0.004103
-0.003418
0.003304
0.004335
0.005219
0.003764
-0.005812
-0.001972
-0.000786
-0.006916
0.003501
0.003598
-0.008019
-0.004027
-0.001858
0.000709
0.005472
-0.001936
-0.001598
-0.003386
-0.012207
-0.001659
0.003745
0.006048
0.017759
0.004190
-0.004738
0.001513
-0.015346
-0.015128
0.002566
0.001363
0.008381
0.010748
0.000210
0.004516
0.004810
0.001586
0.000043
-0.009524
-0.002105
0.005704
-0.004109
-0.000007
0.005241
0.000391
0.001278
-0.001518
0.000797
0.007918
0.001039
0.000431
0.007124
0.003069
0.004675
0.006148
-0.006801
-0.013369
-0.013662
-0.012045
0.003184
0.007909
0.001281
0.009863
0.005068
-0.010885
-0.008582
-0.014602
-0.015167
0.003332
0.004924
0.008765
0.013339
-0.001037
-0.000310
-0.002135
-0.014286
-0.005983
-0.002014
0.008782
0.032488
0.025434
0.012136
-0.007412
-0.050724
-0.046050
0.006789
0.026034
-0.000067
-0.029960
-0.022327
0.025903
0.076931
0.068347
-0.019799
-0.065332
0.001271
0.057292
0.036250
-0.028744
-0.100988
-0.095827
-0.020656
0.011521
0.008941
0.027806
0.049542
0.069867
0.073888
0.038170
-0.002277
-0.042692
-0.078421
-0.060071
-0.016827
0.010286
0.012067
-0.024221
-0.011634
0.060318
0.065688
0.031598
0.006457
-0.031529
-0.010607
0.039783
0.013099
-0.052659
-0.096735
-0.089747
-0.050603
-0.011602
0.051067
0.048414
-0.019101
0.010464
0.033452
-0.007802
0.030874
0.034520
-0.027173
0.001789
0.027638
0.010685
0.054257
0.083441
-0.000028
-0.126402
-0.131779
-0.008896
0.073261
0.080413
0.056646
0.016722
0.039749
0.091678
0.036880
-0.089741
-0.151836
-0.114097
-0.028841
0.034910
0.013347
-0.039372
-0.001405
0.068639
0.060550
0.001413
-0.050128
-0.042681
0.004309
0.019759
-0.000013
-0.032576
-0.005384
0.083886
0.076487
-0.024835
-0.059325
-0.003302
0.025117
-0.056188
-0.117731
-0.022204
0.125639
0.173472
0.081194
-0.049898
-0.082032
-0.039428
0.002996
0.011881
-0.007631
0.014113
0.027796
-0.034130
-0.075247
-0.076758
-0.053790
0.017180
0.029634
-0.006028
0.020186
0.028638
0.009284
0.021219
-0.004609
-0.009364
0.072999
0.092774
0.021822
-0.018390
-0.019588
-0.013730
-0.017462
-0.048530
-0.068399
-0.029674
0.038943
0.046429
0.001842
0.009761
0.012649
-0.057978
-0.064214
0.017820
0.045936
0.006827
-0.028353
0.001061
0.108916
0.161822
0.049291
-0.116896
-0.163305
-0.073557
0.014474
0.021757
0.021536
0.023853
-0.027098
-0.078047
-0.071583
-0.008510
0.064828
0.060472
0.025224
0.040984
0.036874
-0.008048
-0.033531
-0.033779
-0.023988
-0.030763
-0.039075
-0.022927
-0.015035
0.024715
0.109260
0.134569
0.131758
0.130611
0.011492
-0.140932
-0.160559
-0.132500
-0.136305
-0.128975
-0.061767
0.092227
0.205896
0.162106
0.065685
0.006188
-0.017668
-0.014357
-0.021772
-0.033317
-0.059515
-0.131796
-0.154801
-0.088818
-0.021427
0.038084
0.098513
0.140280
0.158098
0.114848
0.028249
-0.057407
-0.111737
-0.041041
0.080863
0.064546
-0.030990
-0.096171
-0.119992
-0.060332
0.025122
0.035252
0.016123
0.072484
0.179877
0.155145
0.006072
-0.046007
-0.049137
-0.105720
-0.111471
-0.145045
-0.228869
-0.122825
0.085905
0.128288
0.080031
0.084091
0.089893
0.038818
-0.001981
0.026319
0.047440
0.032673
0.045569
0.051063
-0.002624
-0.050835
-0.047270
-0.057992
-0.109782
-0.120544
-0.072704
-0.033200
-0.009495
0.036467
0.090548
0.098092
0.074122
0.055134
0.000985
-0.064043
-0.057845
-0.021527
-0.021789
-0.023560
-0.000933
0.010047
0.016558
0.053405
0.098120
0.104381
0.025909
-0.084183
-0.086567
-0.029104
-0.014602
0.014531
0.031586
-0.021531
-0.063688
-0.072568
-0.067436
-0.023481
0.018684
0.003561
-0.058239
-0.105196
-0.094842
-0.083000
-0.101607
-0.068393
0.075363
0.277090
0.420704
0.447208
0.413260
0.376658
0.324565
0.266563
0.270694
0.355589
0.456694
0.471546
0.266571
-0.214729
-0.834255
-1.329868
-1.480070
-1.254170
-0.822343
-0.443003
-0.319362
-0.466752
-0.751084
-0.941295
-0.756771
-0.103022
0.861480
1.787926
2.205387
1.899054
1.080071
0.112348
-0.692498
-1.153655
-1.125185
-0.558566
0.199295
0.723166
0.937105
0.898311
0.683597
0.391293
0.014485
-0.379133
-0.576074
-0.498814
-0.283003
-0.088633
0.088380
0.324945
0.533329
0.569661
0.409170
0.110109
-0.191939
-0.398891
-0.552378
-0.670978
-0.687510
-0.555372
-0.311126
-0.049913
0.184687
0.374103
0.458883
0.417141
0.212455
-0.217563
-0.767797
-1.208866
-1.393630
-1.274329
-0.876963
-0.329995
0.213181
0.676945
0.994182
1.118279
1.155952
1.187873
1.124956
0.943922
0.712026
0.467702
0.320464
0.334118
0.334604
0.136335
-0.254853
-0.742398
-1.181381
-1.394127
-1.282708
-0.880521
-0.358736
0.099416
0.470089
0.724637
0.736855
0.516367
0.187092
-0.144422
-0.376118
-0.502245
-0.568056
-0.556803
-0.473094
-0.340004
-0.224959
-0.236795
-0.302932
-0.284168
-0.165655
0.093170
0.451828
0.724493
0.826752
0.757860
0.613890
0.589467
0.647565
0.590404
0.418519
0.261475
0.182731
0.159358
0.118735
-0.004888
-0.166554
-0.236913
-0.262353
-0.404963
-0.608665
-0.743638
-0.776104
-0.624640
-0.355733
-0.228434
-0.253501
-0.283057
-0.330851
-0.380438
-0.384094
-0.392563
-0.350931
-0.148253
0.177608
0.467291
0.553402
0.498529
0.487926
0.491150
0.468706
0.465598
0.456394
0.507019
0.639107
0.693845
0.631644
0.495341
0.275215
-0.009786
-0.337516
-0.634290
-0.782638
-0.743275
-0.550355
-0.329412
-0.215795
-0.203102
-0.224517
-0.210114
-0.079580
0.114982
0.193011
0.094404
-0.068906
-0.209555
-0.270777
-0.180112
-0.038128
-0.032643
-0.127031
-0.201528
-0.243515
-0.184926
0.057486
0.392823
0.666858
0.774448
0.645755
0.341972
0.039495
-0.127977
-0.133531
-0.069979
-0.024661
0.005739
-0.016540
-0.098497
-0.156551
-0.182066
-0.163914
-0.081201
-0.017394
0.036325
0.140365
0.209682
0.193837
0.126272
0.028035
-0.055145
-0.102787
-0.132825
-0.176619
-0.252137
-0.298532
-0.293853
-0.268316
-0.204395
-0.135774
-0.081414
-0.003061
0.047143
0.050223
0.066260
0.112140
0.200864
0.296183
0.340831
0.356035
0.342414
0.290700
0.208031
0.092446
0.044879
0.134405
0.224861
0.195853
0.039815
-0.236493
-0.519295
-0.625743
-0.529985
-0.333677
-0.133592
-0.008046
0.003927
-0.108602
-0.284581
-0.347042
-0.199620
0.076193
0.335243
0.419011
0.292888
0.104172
-0.032409
-0.092296
-0.067186
0.018766
0.141099
0.255696
0.286799
0.241964
0.204672
0.215898
0.224748
0.193956
0.174282
0.126120
-0.014555
-0.124483
-0.141317
-0.150227
-0.166990
-0.180183
-0.171013
-0.151182
-0.222541
-0.354410
-0.417513
-0.400846
-0.314238
-0.180730
-0.069860
0.003479
0.026611
0.003765
0.008629
0.055927
0.109724
0.149921
0.143478
0.116100
0.132274
0.174278
0.215064
0.272659
0.334754
0.376365
0.373888
0.310349
0.237518
0.186242
0.122702
0.071419
0.054021
0.025372
-0.041416
-0.146108
-0.245335
-0.300404
-0.323869
-0.290445
-0.227195
-0.226063
-0.273730
-0.334947
-0.370152
-0.311277
-0.215036
-0.142062
-0.080158
-0.076904
-0.125097
-0.165185
-0.198632
-0.173756
-0.028408
0.188126
0.389672
0.516980
0.557533
0.525316
0.420359
0.278296
0.172390
0.128533
0.131284
0.168995
0.192352
0.141119
0.050595
-0.031417
-0.128952
-0.204428
-0.186948
-0.117620
-0.066800
-0.063843
-0.107640
-0.139531
-0.138252
-0.151795
-0.163978
-0.146627
-0.137951
-0.120729
-0.056909
0.029246
0.149603
0.258938
0.212820
0.039316
-0.114869
-0.197843
-0.170489
-0.057566
0.015145
0.002893
-0.075633
-0.186172
-0.257789
-0.246627
-0.142729
-0.031009
-0.001863
0.043473
0.146604
0.212606
0.249793
0.241339
0.155496
0.082233
0.040685
0.013231
0.036021
0.092273
0.175585
0.255809
0.249447
0.179517
0.092863
-0.006097
-0.069700
-0.100256
-0.134897
-0.154977
-0.164250
-0.162962
-0.133638
-0.122919
-0.147420
-0.159445
-0.148373
-0.105964
-0.022903
0.066915
0.141150
0.177666
0.161284
0.124956
0.073292
0.026389
0.043159
0.070784
0.051337
0.034863
0.023176
-0.016816
-0.070985
-0.107834
-0.095228
-0.066097
-0.065214
-0.070350
-0.092783
-0.142229
-0.174592
-0.181582
-0.160406
-0.107923
-0.045187
0.030125
0.099294
0.140541
0.155674
0.130946
0.139782
0.248139
0.334512
0.302662
0.190603
0.044114
-0.072360
-0.113856
-0.105727
-0.081960
-0.062330
-0.055486
-0.073947
-0.106378
-0.098998
-0.060186
-0.038129
-0.014725
0.021866
0.045673
0.044324
0.002345
-0.053942
-0.064258
-0.048887
-0.040221
-0.016151
0.005544
0.008048
0.003172
-0.023163
-0.034241
-0.007182
-0.003217
-0.013291
-0.008934
-0.006745
0.018690
0.046036
0.051163
0.076266
0.088743
0.063889
0.025807
-0.040247
-0.080320
-0.061869
-0.042342
-0.001607
0.048026
0.033791
-0.015687
-0.072620
-0.120329
-0.103483
-0.061739
-0.063842
-0.078180
-0.050738
0.010329
0.053969
0.078624
0.111560
0.129381
0.134566
0.147887
0.143914
0.135373
0.148388
0.155413
0.137096
0.087926
0.024545
-0.009423
-0.018929
-0.021178
-0.015701
-0.037474
-0.079016
-0.090201
-0.090257
-0.098642
-0.108410
-0.144954
-0.189001
-0.209470
-0.223981
-0.203903
-0.137284
-0.071637
-0.005549
0.033283
-0.004951
-0.068165
-0.109550
-0.118333
-0.081069
-0.036299
0.005428
0.062757
0.120034
0.186165
0.247896
0.270949
0.254574
0.182317
0.085660
0.028978
0.010434
0.027083
0.056856
0.060350
0.070923
0.110705
0.161004
0.197078
0.172937
0.111614
0.069987
0.036469
0.009021
-0.017381
-0.076080
-0.136755
-0.163793
-0.166648
-0.134265
-0.082233
-0.054869
-0.051573
-0.078945
-0.134857
-0.175352
-0.222766
-0.293280
-0.311987
-0.277821
-0.247157
-0.209041
-0.152949
-0.079323
0.012409
0.083738
0.111823
0.115289
0.122918
0.145006
0.164195
0.185059
0.203983
0.190641
0.155811
0.113632
0.089824
0.121186
0.155314
0.162586
0.172543
0.160148
0.151441
0.183556
0.199867
0.187248
0.143729
