EVENT_NAME: 202008062215
EVENT_ID: -1
EVENT_DATE_YYYYMMDD: 2020/08/06
EVENT_TIME_HHMMSS: 22:15:38.00000
EVENT_LATITUDE_DEGREE: 38.1683
EVENT_LONGITUDE_DEGREE: 38.6841
EVENT_DEPTH_KM: 10.39
HYPOCENTER_REFERENCE: AFAD
MAGNITUDE_W: 
MAGNITUDE_W_REFERENCE: 
MAGNITUDE_L: 3.1
MAGNITUDE_L_REFERENCE: AFAD
FOCAL_MECHANISM: 
NETWORK: TK
STATION_CODE: 0205
STATION_NAME: 
STATION_LATITUDE_DEGREE: 37.79177
STATION_LONGITUDE_DEGREE: 38.61597
STATION_ELEVATION_M: 723.0
LOCATION: Malatya_Puturge_Turkiye
SENSOR_DEPTH_M: 
VS30_M/S: 660
SITE_CLASSIFICATION_EC8: B
MORPHOLOGIC_CLASSIFICATION: 
EPICENTRAL_DISTANCE_KM: 42.29
EARTHQUAKE_BACKAZIMUTH_DEGREE: 
DATE_TIME_FIRST_SAMPLE_YYYYMMDD_HHMMSS: 2020/08/06 22:15:15.5027420
DATE_TIME_FIRST_SAMPLE_PRECISION: millisecond
SAMPLING_INTERVAL_S: 0.01
NDATA: 10500
DURATION_S: 
STREAM: HNZ
UNITS: cm/sn2
INSTRUMENT: sensor = CMG-5T/GURALP | digitizer = 
INSTRUMENT_ANALOG/DIGITAL: 
INSTRUMENTAL_FREQUENCY_HZ: 
INSTRUMENTAL_DAMPING: 
FULL_SCALE_G: 
N_BIT_DIGITAL_CONVERTER: 
PGA_CM/S^2: 0.044
TIME_PGA_S: 
BASELINE_CORRECTION: BASELINE REMOVED
FILTER_TYPE: BUTTERWORTH
FILTER_ORDER: 1
LOW_CUT_FREQUENCY_HZ: 0.025
HIGH_CUT_FREQUENCY_HZ: 40.0
LATE/NORMAL_TRIGGERED: NT
DATABASE_VERSION: 
HEADER_FORMAT: DYNA 1.2
DATA_TYPE: Acceleration
PROCESSING: Automatic Paolucci et al., 2011
DATA_TIMESTAMP_YYYYMMDD_HHMMSS: 
DATA_LICENSE: U (unknown license)
DATA_CITATION: Turkish Accelerometric Archive v 1.0 - Disaster And Emergency Management Presidency, Earthquake Department
DATA_CREATOR: AFAD
ORIGINAL_DATA_MEDIATOR_CITATION: : AFAD - Disaster And Emergency Management Presidency
ORIGINAL_DATA_MEDIATOR: AFAD PROCESS SERVICE
ORIGINAL_DATA_CREATOR_CITATION: AFAD PROCESS SERVICE
ORIGINAL_DATA_CREATOR: network: TK
USER1: GuestUser
USER2: 
USER3: 
USER4: 
USER5: 
[...]
0.001145
-0.000823
-0.000945
0.000192
0.000158
0.000133
0.000512
0.000091
-0.000381
-0.000506
-0.000796
-0.000307
0.000356
-0.000175
-0.000615
-0.001084
-0.001822
-0.000621
0.000964
0.000442
-0.000238
0.000244
0.000669
-0.000180
-0.001483
-0.000869
0.001270
0.001556
-0.000643
-0.001040
0.001860
0.002626
-0.000594
-0.001963
0.000543
0.001723
-0.000272
-0.000877
0.000976
0.000715
-0.001819
-0.001869
0.000546
0.001463
0.000327
-0.001134
-0.001124
0.000989
0.001884
0.000096
-0.000924
-0.000174
0.000943
0.001674
0.000974
-0.000371
-0.000734
-0.000453
0.000144
0.000691
0.000196
-0.000124
0.000729
0.000284
-0.001445
-0.000882
0.001361
0.001672
-0.000208
-0.001827
-0.001151
0.001383
0.002489
0.000860
0.000079
0.000937
-0.000393
-0.002385
-0.000780
0.001867
0.001581
-0.000236
-0.000872
-0.000372
-0.000411
-0.001583
-0.001740
0.000738
0.002925
0.001999
-0.000107
-0.000951
-0.000837
-0.000553
0.000302
0.001338
0.000939
-0.000436
-0.001142
-0.000872
-0.000096
0.000347
0.001069
0.002424
0.001497
-0.001568
-0.002006
0.000291
0.001088
0.000218
0.000582
0.001372
-0.000417
-0.002503
-0.001213
0.000602
0.000529
0.000486
0.000548
0.000177
-0.000281
-0.001007
-0.000757
0.000818
0.001138
-0.000081
-0.000249
0.000529
0.000267
-0.000777
-0.000734
0.000789
0.001517
0.000591
0.000235
0.000708
0.000920
0.001017
0.000670
0.000712
0.001339
0.000390
-0.000610
0.000389
0.000920
0.000369
0.000486
0.001284
0.001703
0.000753
0.000131
0.001080
0.000602
-0.001064
-0.000937
0.000035
0.000745
0.000446
-0.000772
0.000177
0.001391
-0.000742
-0.002113
-0.000786
-0.000300
-0.000558
-0.000214
0.000462
0.001013
0.000306
-0.000894
-0.000727
0.000214
0.000442
-0.000136
-0.000200
0.000423
0.000377
0.000388
0.001036
0.000545
-0.000546
-0.000535
0.000020
0.000550
0.000455
-0.000376
-0.000270
0.000421
0.000039
-0.000294
0.000207
0.000157
-0.000570
-0.000865
-0.000350
0.000973
0.001704
-0.000020
-0.001534
-0.000090
0.000823
-0.000630
-0.000803
0.001105
0.001520
0.000046
-0.000265
0.000006
-0.000959
-0.001433
-0.000663
0.000186
0.000455
-0.000164
-0.000014
0.000954
0.000268
-0.000474
-0.000327
-0.001050
-0.001110
-0.000465
-0.000506
-0.000433
-0.000701
-0.000990
-0.000267
0.000438
0.000027
-0.001013
-0.000308
0.001286
0.000036
-0.001360
0.000642
0.001833
-0.000064
-0.001031
0.000101
0.000780
0.000107
-0.001135
-0.001543
-0.000215
0.000765
-0.000498
-0.001313
0.000166
0.001444
0.000763
-0.001101
-0.001509
0.000697
0.001741
0.000387
0.000257
0.000909
0.000287
0.000021
0.000313
-0.000144
-0.000551
-0.000134
0.000120
-0.000766
-0.001405
-0.000378
0.000516
0.000050
-0.000383
-0.000225
-0.000119
-0.000260
-0.000593
-0.000559
0.000748
0.001341
-0.000482
-0.000644
0.001525
0.001368
0.000445
0.000954
0.000337
-0.000326
0.000631
0.001007
0.000464
0.000385
0.000329
-0.000044
0.000122
0.000480
0.000084
-0.000081
0.000951
0.001211
-0.000836
-0.001889
0.000073
0.001502
0.001364
0.001016
-0.000014
-0.000079
0.001037
0.001156
0.001248
0.001356
0.000572
-0.000083
-0.000256
0.000851
0.002180
0.001053
0.000353
0.002432
0.002491
-0.000259
-0.000603
0.000662
0.000276
-0.000205
-0.000014
-0.000051
-0.000208
-0.000203
0.000625
0.001704
0.001326
-0.000058
-0.000570
0.000039
0.000427
0.000050
0.000246
0.001616
0.001908
0.000117
-0.001078
-0.000040
0.001324
0.001263
0.001016
0.000869
-0.000591
-0.001427
0.000013
0.001580
0.001198
-0.000762
-0.001012
0.000597
0.000277
-0.000638
-0.000124
-0.000282
-0.000339
0.000597
0.000086
-0.000874
-0.000129
0.000184
-0.000518
-0.000309
0.000153
-0.000258
-0.000403
0.000519
0.000471
-0.001087
-0.000929
0.000969
0.001484
0.000479
-0.000074
0.000315
0.000215
-0.000268
0.000100
0.000570
0.000569
0.000206
-0.000018
0.000665
0.000900
0.000070
-0.000528
-0.000628
0.000029
0.000775
0.000353
0.000272
0.000724
-0.000304
-0.001067
0.000026
0.000861
0.000397
-0.000893
-0.000935
0.000863
0.000661
-0.000648
0.000697
0.001593
-0.000074
-0.001082
-0.000337
0.000634
0.000334
-0.000993
-0.000738
0.001273
0.002113
0.001235
0.000485
0.000387
-0.000016
-0.000655
-0.000009
0.001682
0.001615
-0.000312
-0.000636
0.000890
0.001315
0.000369
0.000279
0.001240
0.000725
-0.000620
0.000164
0.001144
0.000276
-0.000310
0.000601
0.001783
0.000777
-0.001488
-0.001021
0.000795
0.000465
-0.000947
-0.001025
0.000568
0.001296
-0.000048
-0.000794
-0.000117
0.000606
0.000855
0.000461
0.000523
0.000658
-0.001014
-0.001737
0.000692
0.001882
-0.000381
-0.001674
0.000046
0.001025
-0.000224
-0.000834
0.000252
0.001044
0.000760
0.000713
0.000406
-0.000759
-0.000850
0.000407
0.001289
0.000903
0.000012
-0.000272
-0.000106
0.000615
0.000962
-0.000095
-0.000247
0.000810
0.000544
-0.000191
0.000165
0.000550
0.001005
0.001680
0.000644
-0.000601
0.000424
0.000902
0.000361
0.000867
0.000283
-0.001063
-0.000443
0.000845
0.001133
0.000404
-0.000234
0.000287
0.000466
-0.000230
0.000126
0.001132
0.000473
-0.000929
-0.000561
0.000692
0.000968
0.000072
-0.000736
-0.000036
0.000378
-0.000367
-0.000059
0.000175
-0.000898
-0.001040
-0.000017
0.000917
0.000752
-0.001138
-0.002005
-0.000156
0.001146
0.000294
-0.000421
0.000105
0.000356
-0.000913
-0.002046
-0.000956
0.000394
0.000179
0.000105
-0.000094
-0.001062
-0.000731
0.000452
0.000738
0.000184
-0.000687
-0.000274
0.000505
-0.000470
-0.000805
-0.000448
-0.001076
0.000032
0.001411
-0.000017
-0.000532
0.000583
0.000035
-0.000513
0.000014
-0.000556
-0.000952
-0.000360
-0.000781
-0.000793
-0.000216
-0.001328
-0.001154
0.000820
-0.000034
-0.001823
-0.000872
0.000653
0.000588
-0.000719
-0.001063
0.000385
0.000186
-0.001520
-0.000872
0.000375
-0.000331
-0.000968
-0.000381
0.000467
0.000285
-0.000830
-0.000994
-0.000395
-0.000678
-0.001442
-0.000898
0.000836
0.000893
-0.000740
-0.000860
0.000330
0.000123
-0.001274
-0.000444
0.002015
0.000723
-0.002390
-0.001478
0.000877
0.001180
0.000552
-0.000234
0.000122
0.001218
0.000630
-0.000221
0.000132
0.000308
0.000339
0.000274
-0.000601
-0.001022
-0.000055
0.000901
0.001480
0.001545
0.000037
-0.000367
0.001530
0.001128
-0.001262
-0.001574
-0.000553
0.000524
0.000518
-0.001096
-0.000796
0.000307
-0.002114
-0.004301
-0.003735
-0.004779
-0.007252
-0.008733
-0.011478
-0.016116
-0.019548
-0.018147
-0.007924
0.008663
0.021970
0.027800
0.026154
0.017672
0.010884
0.011981
0.014156
0.011224
0.006080
0.001211
-0.004388
-0.007467
-0.003949
0.001909
0.003323
0.001313
0.000569
-0.003144
-0.014093
-0.019670
-0.011281
-0.002136
-0.001344
-0.001883
0.000428
0.000011
-0.005692
-0.007274
0.000457
0.008140
0.012228
0.014914
0.010147
0.000577
0.001188
0.013247
0.019791
0.011686
0.000585
-0.005775
-0.013789
-0.020396
-0.016687
-0.006892
0.000636
0.003001
-0.000871
-0.009711
-0.016266
-0.012692
-0.001727
0.006683
0.008729
0.006328
0.000210
-0.004624
0.000052
0.010374
0.016893
0.018254
0.012766
0.001741
-0.003211
0.001058
0.001898
-0.005423
-0.006605
0.002459
0.003950
-0.003536
-0.004382
-0.000364
0.002920
0.004590
-0.002780
-0.013591
-0.013899
-0.005893
0.002028
0.005094
0.002741
0.000136
-0.000166
-0.001227
-0.003765
-0.003617
-0.000197
0.003566
0.006554
0.004572
-0.000665
-0.001445
-0.003991
-0.012583
-0.015654
-0.007265
0.006167
0.009984
-0.001972
-0.011375
-0.005857
0.004868
0.009553
0.003004
-0.004715
-0.002336
0.002411
0.009053
0.015629
0.002831
-0.017682
-0.014457
0.004908
0.014966
0.013018
0.007814
-0.001824
-0.016102
-0.016559
0.004395
0.017945
0.008106
0.002278
0.013392
0.015214
-0.002081
-0.016103
-0.015569
-0.009595
-0.001392
0.008156
0.007462
-0.003573
-0.007874
-0.000080
0.008514
0.008326
0.000861
-0.008742
-0.015830
-0.010498
0.003815
0.009824
0.010470
0.011456
0.003096
-0.009477
-0.016808
-0.019931
-0.013445
-0.000711
0.005037
0.002859
-0.003762
-0.008583
-0.002881
0.009090
0.015180
0.011450
0.003890
-0.004748
-0.014190
-0.015349
-0.007105
0.001452
0.008678
0.008627
-0.000939
-0.004473
-0.000451
0.001022
0.007486
0.019087
0.015378
-0.005350
-0.016501
-0.005421
0.006678
0.003816
-0.000171
0.003225
0.003923
0.002005
0.005078
0.011861
0.018687
0.019887
0.009959
-0.003338
-0.009309
-0.011032
-0.011822
-0.007572
-0.002368
-0.003189
-0.008846
-0.016238
-0.016327
-0.003835
0.006415
0.004208
-0.002643
-0.007095
-0.004676
0.004777
0.011821
0.012032
0.010878
0.010791
0.006775
-0.005588
-0.019514
-0.021334
-0.007977
0.008501
0.015210
0.011742
0.006158
0.003754
0.002210
-0.004102
-0.015633
-0.025970
-0.024304
-0.009600
0.000722
-0.002659
-0.008311
-0.003334
0.011917
0.019022
0.005596
-0.011597
-0.013214
-0.001746
0.008454
0.007547
0.000852
-0.000386
0.005443
0.013527
0.016743
0.010037
0.000649
0.000884
0.009484
0.010949
-0.000484
-0.009162
-0.004775
0.001530
-0.001872
-0.009248
-0.006786
0.004641
0.012074
0.011423
0.003580
-0.007485
-0.008301
0.003483
0.013906
0.016795
0.012941
0.000523
-0.012818
-0.013371
-0.003257
0.004531
0.004473
-0.000381
-0.003555
-0.004620
-0.007649
-0.007940
-0.002578
0.002592
0.004390
-0.000820
-0.011429
-0.013480
-0.002424
0.007671
0.003178
-0.008050
-0.005689
0.005406
0.005295
-0.001980
-0.004517
-0.001440
0.007850
0.017349
0.015235
0.003213
-0.005869
-0.007567
-0.009034
-0.011196
-0.006515
0.001707
0.003747
0.000081
-0.003258
-0.002687
-0.001104
-0.002364
-0.002229
0.000755
0.003078
0.005967
0.008759
0.007892
0.003912
0.003041
0.010347
0.015485
0.007995
-0.000647
0.000262
0.003695
0.004131
0.004745
0.004545
0.000904
-0.002988
-0.007810
-0.012519
-0.009428
-0.004147
-0.004069
-0.003162
-0.002199
-0.003008
-0.000392
0.002424
0.004540
0.009980
0.013065
0.011196
0.007584
0.000082
-0.008522
-0.009549
-0.003914
-0.001283
-0.003922
-0.005336
-0.003976
-0.001155
0.000181
-0.002751
0.000614
0.010370
0.006231
-0.010853
-0.020389
-0.014167
0.001649
0.017115
0.025581
0.017905
-0.004151
-0.015778
-0.007965
0.004285
0.010499
0.004212
-0.008013
-0.012891
-0.013691
-0.007828
0.007922
0.012712
-0.001469
-0.015416
-0.016112
-0.007376
0.001016
0.007195
0.011925
0.009631
0.004326
0.003091
0.001920
0.006666
0.021005
0.021902
0.001856
-0.012404
-0.008258
0.000489
0.002511
-0.001706
-0.007461
-0.011125
-0.011331
-0.007903
-0.000736
0.005956
0.008615
0.009715
0.004183
-0.005948
-0.002008
0.007502
0.001883
-0.004358
-0.000797
0.000331
0.001792
0.007409
0.006174
-0.000600
0.001932
0.012068
0.009183
-0.006837
-0.013161
-0.009332
-0.009562
-0.009782
0.000886
0.017007
0.015185
-0.008429
-0.024140
-0.016939
-0.001157
0.007706
0.008823
0.009271
0.006771
0.000994
-0.001259
-0.001647
0.001378
0.011486
0.016607
0.004455
-0.013262
-0.013422
0.000925
0.011040
0.018021
0.020133
-0.000297
-0.033590
-0.036314
0.001025
0.024274
0.006164
-0.010765
-0.006568
-0.004013
-0.007948
-0.009084
-0.003727
0.001635
-0.000624
0.000924
0.007694
0.003684
-0.003339
0.000232
0.007849
0.009056
0.000422
-0.003452
0.007751
0.016034
0.011159
-0.002713
-0.018713
-0.016694
-0.000410
0.004769
0.003899
0.004035
0.000683
0.004963
0.011877
0.005098
-0.003365
-0.001390
0.002150
0.000486
0.000264
0.007335
0.010963
0.004929
-0.001165
-0.005974
-0.009319
-0.005646
0.002401
0.009302
0.005704
-0.005810
-0.006129
-0.004357
-0.013962
-0.013142
0.002861
0.010895
0.004683
-0.003390
-0.002458
0.001945
0.002809
0.003606
-0.003484
-0.018829
-0.020012
-0.001772
0.021167
0.032458
0.017134
-0.011013
-0.019601
-0.008940
-0.002860
-0.009835
-0.017414
-0.007150
0.016451
0.028159
0.020765
0.004074
-0.009849
-0.005889
0.009800
0.012704
-0.001139
-0.013764
-0.005272
0.021152
0.033090
0.018232
-0.002789
-0.019069
-0.026888
-0.020001
-0.007995
-0.000086
0.009054
0.015371
0.007388
-0.007252
-0.010875
-0.005128
-0.004517
-0.008473
-0.007842
-0.004885
-0.003658
-0.003840
-0.007049
-0.008874
-0.003527
0.003609
0.007160
0.006432
0.000027
-0.008744
-0.013280
-0.007017
0.008183
0.011389
-0.002103
-0.001772
0.017434
0.022904
0.009711
0.002159
0.004891
0.005441
0.001550
-0.002148
-0.005042
-0.003916
0.005968
0.016292
0.010774
-0.010837
-0.028138
-0.025684
-0.013069
-0.006759
-0.000517
0.018322
0.034124
0.028707
0.016385
0.010217
-0.000968
-0.017871
-0.022313
-0.010112
0.001561
0.001068
-0.002972
-0.000295
0.002813
0.000639
0.002638
0.008243
-0.000053
-0.019170
-0.020961
0.001413
0.020423
0.019488
0.011102
-0.000510
-0.020418
-0.032396
-0.025151
-0.014605
-0.008753
0.002398
0.022502
0.040790
0.041903
0.023654
-0.000751
-0.016763
-0.012912
0.008297
0.020278
0.006611
-0.011882
-0.014446
-0.006769
-0.000924
-0.005283
-0.016839
-0.017573
-0.003644
0.010219
0.019152
0.024797
0.025786
0.022446
0.008202
-0.018432
-0.035760
-0.030253
-0.012621
0.007850
0.019781
0.009348
-0.015400
-0.036256
-0.040501
-0.022176
0.003988
0.020579
0.026409
0.017344
-0.002822
-0.012178
-0.002952
0.011922
0.019142
0.014843
0.002934
-0.007329
0.001421
0.028643
0.040526
0.020694
-0.009601
-0.029870
-0.030222
-0.009042
0.016844
0.027542
0.024799
0.021580
0.016156
0.000389
-0.018064
-0.027633
-0.028919
-0.020629
-0.001426
0.010734
0.007172
0.009890
0.023512
0.025159
0.013085
0.001689
-0.007182
-0.012657
-0.015768
-0.027727
-0.044485
-0.043295
-0.017341
0.012663
0.020671
0.004698
-0.007751
0.003665
0.022468
0.023095
0.007846
-0.003235
-0.001186
0.004414
0.007218
0.010963
0.003927
-0.017314
-0.022653
-0.005383
0.007945
0.011866
0.017391
0.022723
0.017449
0.004062
-0.002132
-0.000534
-0.001198
-0.006121
-0.016013
-0.025712
-0.021813
-0.003482
0.012645
0.014664
0.011298
0.010807
0.006534
0.001317
0.004103
0.010036
0.013539
0.011485
0.003083
-0.002540
-0.004139
-0.009547
-0.017647
-0.024050
-0.024134
-0.013505
0.004900
0.023287
0.031077
0.023883
0.008231
-0.007398
-0.013074
-0.010230
-0.012345
-0.014518
-0.005812
0.003657
0.004235
0.000156
-0.003169
-0.002587
0.000766
0.001034
-0.001844
-0.001025
0.002679
0.003839
0.006700
0.012897
0.012903
0.002139
-0.011423
-0.014545
-0.002925
0.012630
0.018083
0.012704
0.009418
0.010047
0.005768
0.003323
0.010289
0.019889
0.021704
0.006442
-0.013964
-0.018668
-0.016582
-0.015735
-0.006972
-0.001198
-0.009151
-0.015195
-0.009042
-0.000193
0.000085
-0.005356
-0.003521
0.005043
0.007819
0.002708
-0.004201
-0.007694
-0.003959
0.004930
0.011379
0.009607
-0.000358
-0.011326
-0.012052
-0.003307
-0.001544
-0.010135
-0.013462
-0.005655
0.006447
0.013901
0.009715
0.001664
0.003073
0.010048
0.008563
-0.004839
-0.015252
-0.008500
0.004882
0.007656
0.002849
0.000823
0.000307
-0.002524
-0.001362
0.005504
0.004190
-0.007107
-0.011266
-0.006403
-0.006177
-0.012523
-0.013417
-0.000444
0.013171
0.006754
-0.010980
-0.013186
0.001985
0.013237
0.009266
-0.001652
-0.008477
-0.010616
-0.010437
-0.007814
-0.007607
-0.011136
-0.010374
-0.006249
-0.003504
0.003468
0.012190
0.012812
0.008288
0.002730
-0.005433
-0.010435
-0.004864
0.009707
0.024060
0.025088
0.008424
-0.010089
-0.011666
0.001798
0.014594
0.013915
0.000263
-0.009992
-0.004995
0.010087
0.024426
0.025677
0.008647
-0.011244
-0.016370
-0.011820
-0.011265
-0.013622
-0.009911
-0.000439
0.004463
0.001886
0.002149
0.005227
0.000622
-0.006726
-0.007122
-0.004262
-0.003023
-0.002816
-0.001947
0.002103
0.008838
0.011545
0.007386
0.004126
0.005683
0.005320
-0.000819
-0.007610
-0.006151
0.004003
0.010411
0.008915
0.006021
0.000380
-0.003602
0.003700
0.011247
0.006417
-0.005405
-0.015290
-0.014445
-0.003030
0.006809
0.010805
0.007671
-0.006384
-0.019146
-0.015357
-0.004380
-0.002627
-0.005356
-0.002042
0.002999
0.003725
0.000638
-0.004978
-0.009796
-0.011564
-0.008376
0.000003
0.001399
-0.006689
-0.004517
0.010084
0.020537
0.022740
0.016042
0.003178
-0.003562
-0.003733
-0.003467
0.000017
0.006103
0.009530
0.008477
0.004139
0.000059
-0.002324
-0.002991
-0.002320
-0.002744
0.000421
0.010366
0.015583
0.010526
0.004263
0.004594
0.010485
0.009781
-0.003985
-0.013762
-0.005122
0.007807
0.007564
0.000123
-0.005299
-0.012277
-0.017296
-0.014471
-0.012633
-0.014014
-0.010510
-0.004934
-0.001994
0.001097
0.005969
0.011909
0.016452
0.015583
0.009374
0.005032
0.007234
0.008842
0.003476
-0.004670
-0.011338
-0.015312
-0.016011
-0.016325
-0.016812
-0.014148
-0.009874
-0.005515
0.001817
0.007845
0.006217
0.001101
-0.004224
-0.008545
-0.005752
-0.000941
-0.002809
-0.001611
0.007444
0.010438
0.004189
0.001179
0.006085
0.011595
0.011775
0.007929
0.001600
-0.006938
-0.012480
-0.010774
-0.006380
-0.005233
-0.007129
-0.007776
-0.001717
0.009502
0.012447
0.003887
0.000383
0.006044
0.007217
0.001752
-0.001400
0.001046
0.002580
-0.002870
-0.008041
-0.007116
-0.006623
-0.008263
-0.007129
-0.002226
0.001399
-0.000318
0.000979
0.011495
0.019633
0.016731
0.008157
0.000762
-0.000859
0.002085
0.003200
0.003749
0.007844
0.011521
0.012772
0.015375
0.016609
0.008134
-0.005398
-0.009102
-0.007331
-0.012432
-0.013747
-0.005882
-0.004734
-0.011247
-0.012052
-0.004799
0.002206
0.002175
0.000175
0.001135
-0.000755
-0.005256
-0.005063
-0.000497
0.000645
-0.003993
-0.002990
0.005566
0.005168
-0.003930
-0.006035
0.000125
0.004122
-0.000525
-0.004171
0.003192
0.008372
0.001773
-0.007331
-0.013147
-0.012886
-0.007578
-0.004790
-0.004087
-0.004300
-0.007374
-0.005769
0.005106
0.014441
0.010527
-0.000953
-0.005838
-0.006465
-0.009435
-0.006959
0.001432
0.005981
0.006411
0.006222
0.008049
0.012900
0.015251
0.014578
0.014135
0.011434
0.008384
0.006513
0.000856
-0.006863
-0.012795
-0.014538
-0.005953
0.006760
0.007549
-0.001942
-0.006737
-0.001157
0.008829
0.013209
0.006539
-0.006838
-0.017600
-0.016757
-0.004280
0.004989
0.000586
-0.006944
-0.004430
0.003673
0.005122
-0.001292
-0.006760
-0.007254
-0.005504
-0.002252
0.001537
0.002500
0.000398
-0.002026
0.000802
0.010733
0.015840
0.009174
0.003462
0.004803
0.003270
-0.002874
-0.004416
0.001503
0.005910
0.001433
-0.005031
-0.006394
-0.009267
-0.018545
-0.023185
-0.013603
-0.001148
0.002913
0.005576
0.009569
0.006849
-0.001338
-0.004597
0.000143
0.003950
-0.001559
-0.010639
-0.009440
0.001793
0.007776
0.003311
-0.004023
-0.009453
-0.011022
-0.009514
-0.008118
-0.005796
-0.001913
0.002682
0.009265
0.013600
0.010606
0.004757
0.004204
0.012044
0.017922
0.009994
-0.001814
-0.003834
0.002247
0.010151
0.010216
0.000950
-0.004019
-0.001069
0.003096
0.004583
0.000888
-0.001793
0.000207
-0.001739
-0.006733
-0.008842
-0.011669
-0.013025
-0.008157
-0.004143
-0.005924
-0.008184
-0.005565
0.001583
0.003597
-0.007066
-0.018947
-0.018367
-0.008347
0.001035
0.003748
0.001600
-0.001630
-0.006397
-0.006897
0.004887
0.018929
0.020187
0.011894
0.002992
-0.004144
-0.006305
-0.003412
-0.002495
-0.005281
-0.003979
0.003376
0.006386
0.002328
0.001805
0.007576
0.013365
0.013809
0.005447
-0.004095
-0.002352
0.007153
0.012723
0.011451
0.007460
0.004152
0.000864
